Name,What,Region,Country,Lat,Long,Elev ft.,Pop est
Achankovil,city,Kerala,India,9.09,77.12,367,44025
Adarapalli,city,Kerala,India,10.28,76.57,830,42068
Adekala,city,Kerala,India,12.77,74.97,236,63774
Adiccheri,city,Kerala,India,12.01,75.48,114,73500
Adirapalli,city,Kerala,India,10.28,76.57,830,42068
Adiyadka,city,Kerala,India,12.46,75.05,246,59986
Adiyur,city,Kerala,India,11.67,75.58,39,111765
Adkamola,city,Kerala,India,12.44,75.16,305,53044
Adkatbail,city,Kerala,India,12.45,75.05,183,55907
Adkatbiailu,city,Kerala,India,12.51,74.98,49,56580
Adkatodi,city,Kerala,India,12.53,75.17,830,53044
Adukkatt,city,Kerala,India,11.65,75.77,167,113705
Adur,city,Kerala,India,11.84,75.44,104,28566
Adur,city,Kerala,India,12.03,75.5,167,66500
Adur,city,Kerala,India,12.55,75.19,282,51677
Adur Kasba,city,Kerala,India,12.56,75.23,321,48735
Aduru,city,Kerala,India,12.55,75.19,282,51677
Adurumale,city,Kerala,India,12.54,75.18,216,52529
Aduvad,city,Kerala,India,11.27,75.95,95,43963
Advala,city,Kerala,India,12.58,75.17,406,51748
Adyal,city,Kerala,India,12.32,75.07,68,57038
Adur,city,Kerala,India,9.17,76.73,134,201391
Agalpadi,city,Kerala,India,12.57,75.1,334,53044
Agalad,city,Kerala,India,10.64,75.98,9,62360
Aggimatai,city,Kerala,India,11.85,75.76,892,40845
Airyur,city,Kerala,India,10.63,76,26,76285
Aithara,city,Kerala,India,11.87,75.61,206,49109
Aiyangal,city,Kerala,India,12.36,75.18,830,55889
Aiyangal,city,Kerala,India,12.41,75.24,830,56225
Aiyarote,city,Kerala,India,12.42,75.21,830,54337
Ajanur,city,Kerala,India,12.34,75.09,59,74216
Ajanur,city,Kerala,India,12.34,75.08,45,65822
Akkapadi,city,Kerala,India,12.57,75.29,298,37067
Akkattettar,city,Kerala,India,10.83,76.6,334,79456
Alakode,city,Kerala,India,12.39,75.07,124,52288
Alanallur,city,Kerala,India,11.01,76.35,219,70510
Alandatte,city,Kerala,India,12.26,75.2,200,58815
Alangattukavu,city,Kerala,India,10.82,75.99,16,223874
Alanthangad,city,Kerala,India,12.48,75.24,830,53447
Alapalli,city,Kerala,India,9.49,76.33,6,130822
Alapolai,city,Kerala,India,9.49,76.33,6,130822
Alappula,city,Kerala,India,9.49,76.33,6,130822
Alappuzha,city,Kerala,India,9.49,76.33,6,130822
Alapulai,city,Kerala,India,9.49,76.33,6,130822
Alattadi,city,Kerala,India,12.33,75.2,200,58076
Alattiyur,city,Kerala,India,10.86,75.94,32,175057
Alattur,city,Kerala,India,10.65,76.53,351,90097
Alatur,city,Kerala,India,10.65,76.53,351,90097
Alcheri,city,Kerala,India,11.87,75.67,252,40975
Aleppey,city,Kerala,India,9.49,76.33,6,130822
Aleppi,city,Kerala,India,9.49,76.33,6,130822
Aliyadu,city,Kerala,India,11.93,75.66,305,48765
Alkot,city,Kerala,India,12.4,75.08,104,59073
Allapuza,city,Kerala,India,9.49,76.33,6,130822
Alleppey,city,Kerala,India,9.49,76.33,6,130822
Alleppi,city,Kerala,India,9.49,76.33,6,130822
Aluva,city,Kerala,India,10.1,76.36,36,256177
Alwaye,city,Kerala,India,10.1,76.36,36,256177
Amadipalla,city,Kerala,India,12.57,75.21,259,49228
Ambalapulai,city,Kerala,India,9.4,76.37,16,40621
Ambalapuzha,city,Kerala,India,9.4,76.37,16,40621
Ambilikunnu,city,Kerala,India,11.66,75.69,308,150215
Ambladi,city,Kerala,India,12.43,75.17,147,53046
Ame,city,Kerala,India,12.49,75.19,830,53044
Ameya,city,Kerala,India,12.5,75,45,69356
Ammagote,city,Kerala,India,12.47,75.16,830,53044
Anantavur,city,Kerala,India,10.91,75.98,127,183764
Anapadi,city,Kerala,India,12.32,75.22,226,58653
Anchal,city,Kerala,India,8.9,76.9,226,59627
Andalur,city,Kerala,India,11.79,75.48,3,56294
Andathode,city,Kerala,India,10.68,75.97,6,59542
Andurkonam,city,Kerala,India,8.61,76.86,88,122203
Andona,city,Kerala,India,11.4,75.94,187,6708
Anekal,city,Kerala,India,12.75,74.99,183,56910
Anekallu,city,Kerala,India,12.75,74.99,183,55696
Angadimograr,city,Kerala,India,12.63,75.02,78,53044
Angakaran Kshetram,city,Kerala,India,10.99,75.97,68,173195
Angamally,city,Kerala,India,10.2,76.4,104,131772
Angamali,city,Kerala,India,10.2,76.4,104,131772
Angadippuram,city,Kerala,India,10.97,76.22,255,213874
Angadipuram,city,Kerala,India,10.97,76.22,255,213874
Anicode Junction,city,Kerala,India,10.7,76.75,830,44018
Anije,city,Kerala,India,12.47,75.04,206,64124
Aniyaram,city,Kerala,India,11.74,75.58,127,142090
Anjanamukkund,city,Kerala,India,12.46,75.23,275,53907
Anjarkandi,city,Kerala,India,11.88,75.51,101,45242
Anjengo,city,Kerala,India,8.67,76.77,9,135718
Anjongo,city,Kerala,India,8.67,76.77,9,135718
Anjukudi,city,Kerala,India,10.95,75.88,3,114441
Anjur,city,Kerala,India,10.57,76.18,160,132706
Annantavur,city,Kerala,India,10.9,75.99,118,183764
Annapadi,city,Kerala,India,12.51,75.25,830,51806
Annara,city,Kerala,India,10.9,75.91,6,166601
Annassheri,city,Kerala,India,11.37,75.77,121,89607
Annur,city,Kerala,India,12.13,75.2,59,79483
Antur,city,Kerala,India,12.01,75.4,82,67628
Antur,city,Kerala,India,11.99,75.38,22,54582
Apichadka,city,Kerala,India,12.44,75.06,206,53351
Appanadka,city,Kerala,India,12.52,75.26,830,49158
Arakkilad,city,Kerala,India,11.63,75.61,203,147012
Aralam,city,Kerala,India,12.29,75.25,413,59014
Aralam,city,Kerala,India,11.97,75.74,288,43642
Aralam,city,Kerala,India,11.98,75.71,249,48736
Aralekadu,city,Kerala,India,12.37,75.14,328,63683
Aramballa,city,Kerala,India,12.42,75.14,387,53057
Arambram,city,Kerala,India,11.34,75.89,141,34719
Arangam,city,Kerala,India,12.25,75.48,830,55987
Arangam,city,Kerala,India,12.27,75.48,944,47879
Aranmula,city,Kerala,India,9.33,76.68,22,117270
Aravanadka,city,Kerala,India,12.52,75.17,216,53044
Aravancheri,city,Kerala,India,10.91,75.96,62,198174
Andona,city,Kerala,India,11.28,75.96,85,40762
Arichap,city,Kerala,India,12.47,75.18,830,53044
Arikadi,city,Kerala,India,12.61,74.94,65,38851
Arikkulam,city,Kerala,India,11.49,75.72,118,129123
Arikkad,city,Kerala,India,10.94,75.93,26,201787
Aril,city,Kerala,India,12.01,75.34,170,48090
Arimanal,city,Kerala,India,11.16,76.34,305,65959
Aringula,city,Kerala,India,12.75,74.91,32,62030
Ariyapadi,city,Kerala,India,12.49,75.1,137,54243
Arjyal,city,Kerala,India,11.79,75.84,2509,41349
Aroli,city,Kerala,India,11.95,75.36,3,35916
Arthikodel,city,Kerala,India,12.62,75.2,347,42844
Arthya,city,Kerala,India,12.53,75.23,347,51903
Arukizhaya,city,Kerala,India,11.1,76.14,141,97960
Arukutti,city,Kerala,India,9.87,76.35,6,84471
Arumalaivayal,city,Kerala,India,11.78,75.84,2509,43387
Aryakochi,city,Kerala,India,12.47,75.12,134,53044
Arikkod,city,Kerala,India,11.23,76.05,104,61168
Arur,city,Kerala,India,11.65,75.69,255,138918
Athalur,city,Kerala,India,10.83,75.98,6,221897
Athirssheri,city,Kerala,India,10.97,75.96,72,186955
Attadappa,city,Kerala,India,11.86,75.44,196,31976
Attancheri,city,Kerala,India,11.9,75.77,830,40948
Attapady,city,Kerala,India,11.07,76.56,1912,25777
Attappadi,city,Kerala,India,11.07,76.56,1912,25777
Attingal,city,Kerala,India,8.69,76.82,55,212413
Attiyode,city,Kerala,India,11.53,75.84,830,119243
Attungal,city,Kerala,India,8.69,76.82,55,212413
Auchampitika,city,Kerala,India,11.76,75.94,2509,38072
Aulapolai,city,Kerala,India,9.49,76.33,6,130822
Avala,city,Kerala,India,11.59,75.7,111,115040
Avidanallur,city,Kerala,India,11.49,75.82,311,118985
Avilora,city,Kerala,India,11.38,75.91,229,10280
Avitanallur,city,Kerala,India,11.49,75.82,311,118985
Ayambare,city,Kerala,India,12.43,75.09,219,53051
Ayankadavu,city,Kerala,India,12.44,75.09,121,53044
Ayankalam,city,Kerala,India,10.84,76,13,203369
Ayilakkad,city,Kerala,India,10.77,75.99,3,218950
Ayinikkad,city,Kerala,India,11.54,75.61,3,87991
Ayipur,city,Kerala,India,11.98,75.54,85,70620
Ayirur,city,Kerala,India,10.7,75.97,9,61305
Ayirani,city,Kerala,India,10.93,75.98,154,182707
Ayirur,city,Kerala,India,10.69,75.96,3,61305
Ayyaya,city,Kerala,India,10.96,75.92,9,194150
Ayur,city,Kerala,India,8.88,76.88,223,77519
Azhikal,city,Kerala,India,11.92,75.35,9,26579
Azhikkal,city,Kerala,India,11.92,75.35,9,26579
Azhikkal,city,Kerala,India,9.97,76.25,13,116610
Azhikkod,city,Kerala,India,11.92,75.34,6,25471
Azhikod,city,Kerala,India,11.92,75.34,6,25471
Azhikode,city,Kerala,India,10.2,76.17,6,78828
Azhikode,city,Kerala,India,11.92,75.34,6,25471
Azhiyur,city,Kerala,India,11.69,75.56,6,118703
Azhiyur,city,Kerala,India,11.68,75.56,13,108109
Babayanamule,city,Kerala,India,12.54,75.24,830,50017
Bachuvalike,city,Kerala,India,12.75,74.9,22,75246
Badagara,city,Kerala,India,11.58,75.59,26,116786
Badagara,city,Kerala,India,11.6,75.58,49,100734
Badiadka,city,Kerala,India,12.59,75.08,314,53044
Badiadke,city,Kerala,India,12.51,75.05,249,69575
Badkekad,city,Kerala,India,12.18,75.14,65,36369
Badur,city,Kerala,India,12.65,75.04,236,53862
Badaje,city,Kerala,India,12.72,74.91,127,47299
Baimba,city,Kerala,India,12.38,75.18,830,55029
Baja,city,Kerala,India,12.61,75.18,370,46532
Baje,city,Kerala,India,12.49,75.14,830,53044
Balal,city,Kerala,India,12.38,75.28,308,58598
Balalkunnu,city,Kerala,India,12.36,75.28,298,58748
Balambat,city,Kerala,India,12.62,75.09,334,53114
Balangai,city,Kerala,India,12.52,75.22,387,53043
Balaramapuram,city,Kerala,India,8.42,77.04,131,232016
Balarampuram,city,Kerala,India,8.42,77.04,131,232016
Balatt,city,Kerala,India,12.17,75.47,337,65304
Balatt Dev,city,Kerala,India,12.17,75.49,830,65302
Balavantadka,city,Kerala,India,12.53,75.19,305,53043
Baliapatam,city,Kerala,India,11.92,75.35,9,26579
Balka,city,Kerala,India,12.53,75.17,259,53044
Balla,city,Kerala,India,12.31,75.08,68,60121
Ballakar,city,Kerala,India,12.54,75.25,872,47687
Ballarakaje,city,Kerala,India,12.52,75.21,278,53044
Ballarchang,city,Kerala,India,11.82,75.85,2509,38433
Balla,city,Kerala,India,12.32,75.1,114,75366
Banath,city,Kerala,India,12.35,75.24,830,58562
Bandadka,city,Kerala,India,12.48,75.27,830,52204
Bandadka,city,Kerala,India,12.48,75.24,830,53295
Bangad,city,Kerala,India,12.44,75.09,285,53044
Bangramanjeshvara,city,Kerala,India,12.71,74.89,9,38060
Bannatikan,city,Kerala,India,12.44,75.17,305,53044
Barikala,city,Kerala,India,12.33,75.26,830,58751
Barikala,city,Kerala,India,12.47,75.1,390,53044
Barkolu,city,Kerala,India,12.53,75.14,830,53044
Basanagundi,city,Kerala,India,12.51,75.28,416,45908
Battela,city,Kerala,India,12.76,74.94,249,63896
Batur,city,Kerala,India,12.37,75.14,278,60601
Bavadka,city,Kerala,India,12.43,75.17,249,53107
Bavadka,city,Kerala,India,12.45,75.2,830,53224
Bavathu,city,Kerala,India,11.87,75.5,75,38515
Bayar,city,Kerala,India,12.69,75.02,206,55307
Bayavalap,city,Kerala,India,12.44,75.24,255,54918
Bedadka,city,Kerala,India,12.56,74.98,78,64674
Bedadka,city,Kerala,India,12.46,75.16,830,53044
Bedradka,city,Kerala,India,12.56,74.98,78,64674
Bedrampalla,city,Kerala,India,12.65,75.05,374,53966
Bedre,city,Kerala,India,12.45,75.13,223,53044
Beipur,city,Kerala,India,11.17,75.81,3,150380
Bekal,city,Kerala,India,12.4,75.04,75,31234
Bekal Fort,city,Kerala,India,12.4,75.04,75,31234
Bekuru,city,Kerala,India,12.67,74.95,118,53200
Bela,city,Kerala,India,12.59,75.02,324,58416
Belantadka,city,Kerala,India,12.45,75.16,830,53044
Belayi,city,Kerala,India,12.44,75.16,830,53044
Beliapatanam,city,Kerala,India,11.92,75.35,9,26579
Belinja,city,Kerala,India,12.59,75.14,282,52616
Bellacheri,city,Kerala,India,12.54,75.22,830,51086
Bellakota,city,Kerala,India,12.45,75.09,108,53044
Bellantale,city,Kerala,India,12.38,75.08,108,60259
Belledhal,city,Kerala,India,12.62,75.16,288,48314
Bellikoth,city,Kerala,India,12.38,75.09,196,67646
Bellipadi,city,Kerala,India,12.5,75.13,830,53044
Bellipadi,city,Kerala,India,12.59,75.31,830,33271
Belluru,city,Kerala,India,12.59,75.18,413,49728
Bendichal,city,Kerala,India,12.48,75.04,272,67053
Bennanur,city,Kerala,India,12.32,75.18,291,58570
Beppur,city,Kerala,India,11.17,75.81,3,150380
Bepu,city,Kerala,India,12.49,75.12,406,53044
Berakke,city,Kerala,India,12.59,75.2,830,47916
Beralum,city,Kerala,India,12.54,75.14,830,53044
Bevinje,city,Kerala,India,12.5,75.06,298,64732
Beypore,city,Kerala,India,11.17,75.81,3,150380
Beypur,city,Kerala,India,11.17,75.81,3,150380
Bhagavathi Ambalam,city,Kerala,India,10.85,75.92,6,136584
Bhagavathi Ambalmn,city,Kerala,India,10.86,75.94,19,172342
Bhavikarebail,city,Kerala,India,12.5,75.1,137,53433
Bhuthagana,city,Kerala,India,12.36,75.15,347,59940
Bijantadka,city,Kerala,India,12.63,75.18,390,44858
Binacheri,city,Kerala,India,12.35,75.09,101,75448
Bitikal,city,Kerala,India,12.48,75.08,246,56656
Bnagavathi Kshetram,city,Kerala,India,10.98,75.98,75,173204
Bombrana,city,Kerala,India,12.63,74.95,68,44609
Boyikan,city,Kerala,India,12.51,75.09,390,54664
British Cochin,city,Kerala,India,9.95,76.25,9,109027
Bungar Munjeshwar,city,Kerala,India,12.71,74.89,13,32507
Balusseri,city,Kerala,India,11.45,75.83,137,81381
Balussheri,city,Kerala,India,11.45,75.83,137,81381
Bare,city,Kerala,India,12.45,75.04,68,51457
Aravancheri,city,Kerala,India,12.5,75.18,830,53044
Beluru,city,Kerala,India,12.37,75.18,830,55759
Beluru,city,Kerala,India,12.38,75.16,403,55788
Beluru,city,Kerala,India,12.39,75.2,337,54868
Calecute,city,Kerala,India,11.25,75.78,6,187787
Calicut,city,Kerala,India,11.25,75.78,6,187787
Calicutium,city,Kerala,India,11.25,75.78,6,187787
Cananor,city,Kerala,India,11.87,75.37,6,20372
Cannanore,city,Kerala,India,11.87,75.37,6,20372
Cannanore Karar,city,Kerala,India,11.85,75.4,59,25305
Chaikunhambu,city,Kerala,India,12.74,74.88,6,40370
Chalai,city,Kerala,India,8.48,76.92,3,98476
Chalakilakakara,city,Kerala,India,11.85,75.44,141,30318
Chalakkara,city,Kerala,India,11.73,75.53,26,148639
Chalakudi,city,Kerala,India,10.3,76.34,137,114210
Chalangal,city,Kerala,India,12.38,75.1,187,68977
Chalapadingarakara,city,Kerala,India,11.85,75.43,141,29084
Chalaprathkunnu,city,Kerala,India,11.62,75.8,183,117383
Chalatt,city,Kerala,India,11.88,75.35,6,20640
Chaliyam,city,Kerala,India,11.15,75.82,3,146570
Chaliyar,city,Kerala,India,11.15,75.82,3,146570
Chamala,city,Kerala,India,11.46,75.95,160,23603
Chamandemad,city,Kerala,India,12.19,75.13,3,39939
Chambad,city,Kerala,India,11.75,75.57,147,153994
Chammanad,city,Kerala,India,12.48,75.01,144,60766
Chandanappali,city,Kerala,India,9.21,76.84,387,82899
Chandanatodu,city,Kerala,India,11.85,75.81,2726,39704
Chandare,city,Kerala,India,12.18,75.17,68,55513
Chandragiri,city,Kerala,India,12.46,75,82,48275
Changala,city,Kerala,India,12.5,75.05,154,69575
Changanacheri,city,Kerala,India,9.44,76.54,13,183112
Changanacherry,city,Kerala,India,9.44,76.54,13,183112
Changaramkulam,city,Kerala,India,11.67,75.74,206,121259
Changardtt,city,Kerala,India,11.61,75.78,177,117757
Changarott,city,Kerala,India,11.6,75.78,183,117757
Changoth,city,Kerala,India,11.89,75.78,830,40866
Changadam,city,Kerala,India,11.75,75.98,2509,38397
Channikodlu,city,Kerala,India,12.53,75.25,830,48668
Chapparappadavu,city,Kerala,India,12.14,75.43,190,60810
Charvattu,city,Kerala,India,12.22,75.14,78,49646
Chathoth,city,Kerala,India,12.26,75.17,88,58805
Chattamangalam,city,Kerala,India,11.31,75.92,147,20400
Chattamangalam,city,Kerala,India,11.29,75.92,121,44275
Chatte,city,Kerala,India,12.48,75.14,213,53044
Chaughat,city,Kerala,India,10.53,76.05,45,94878
Chavakkad,city,Kerala,India,10.53,76.05,45,94878
Chavara,city,Kerala,India,8.97,76.53,3,290451
Chavassheri,city,Kerala,India,11.95,75.61,229,63939
Chavassheri,city,Kerala,India,11.96,75.63,213,62238
Chedanampara,city,Kerala,India,12.49,75.15,144,53044
Chegalayi,city,Kerala,India,12.04,75.48,144,65954
Chegat,city,Kerala,India,11.82,76.07,2509,39408
Chekkiad,city,Kerala,India,11.72,75.64,141,138623
Chelakara,city,Kerala,India,10.69,76.34,213,113029
Chelavur,city,Kerala,India,11.29,75.85,137,209735
Chellakote,city,Kerala,India,12.47,75.07,246,57450
Chelora,city,Kerala,India,11.89,75.44,223,36835
Chemancheri,city,Kerala,India,11.39,75.73,3,70288
Chemancheri,city,Kerala,India,11.4,75.72,3,78847
Chembalgaya,city,Kerala,India,12.49,75.15,318,53044
Chembilod,city,Kerala,India,11.88,75.45,236,35963
Chembra,city,Kerala,India,10.93,75.92,6,189850
Chembra,city,Kerala,India,11.4,75.93,187,10261
Chembra,city,Kerala,India,11.73,75.53,26,137487
Chemmarattur,city,Kerala,India,11.6,75.64,252,142833
Chemmaruttayi,city,Kerala,India,11.39,75.98,265,6109
Chendola,city,Kerala,India,12.4,75.2,370,54868
Chengadakam,city,Kerala,India,12.31,75.3,314,59146
Chengala,city,Kerala,India,12.5,75.05,49,68345
Chengannur,city,Kerala,India,9.32,76.62,72,139885
Chennamangallur,city,Kerala,India,11.3,75.98,114,31886
Chennamangaloor,city,Kerala,India,11.3,75.98,114,31886
Chennara,city,Kerala,India,10.84,75.93,6,162773
Chennilara,city,Kerala,India,11.81,75.93,2509,37968
Chenoli,city,Kerala,India,11.54,75.77,183,119240
Chenoli,city,Kerala,India,11.54,75.76,213,119240
Chenott,city,Kerala,India,11.33,75.93,167,6299
Cheppakavu,city,Kerala,India,11.75,75.83,2601,58781
Cheppanur,city,Kerala,India,12.02,75.38,52,63338
Cherakampadi,city,Kerala,India,11.79,75.84,2509,41349
Cherakkara,city,Kerala,India,11.85,75.98,2509,37884
Cherakunni,city,Kerala,India,11.75,75.85,2509,44821
Cheralath,city,Kerala,India,12.34,75.21,236,58011
Cherambe,city,Kerala,India,12.43,75.08,242,52751
Cherangod,city,Kerala,India,11.64,75.74,131,114673
Cherapuram,city,Kerala,India,11.62,75.7,324,114122
Cheratuthuradka,city,Kerala,India,12.45,75.13,830,53044
Cheriyakumbalam,city,Kerala,India,11.64,75.76,131,113705
Cheriyakunda,city,Kerala,India,12.46,75.13,830,53044
Cheriyamundam,city,Kerala,India,10.95,75.96,75,201781
Cheriyamundam,city,Kerala,India,10.94,75.95,59,201784
Cheriyaparappur,city,Kerala,India,10.85,75.96,9,191318
Cheriyur,city,Kerala,India,12.09,75.38,291,55830
Cherkala,city,Kerala,India,12.5,75.07,98,62323
Chernathale,city,Kerala,India,12.29,75.15,144,64797
Cherpadi,city,Kerala,India,12.44,75.18,318,53238
Cherukara,city,Kerala,India,11.71,75.97,2509,40753
Cherukkad,city,Kerala,India,11.52,75.82,232,119242
Cherukolattur,city,Kerala,India,11.27,75.91,91,80062
Cherukolattur,city,Kerala,India,11.28,75.9,242,87554
Cherukunnu,city,Kerala,India,11.61,75.73,121,115127
Cherukunnu,city,Kerala,India,12,75.29,19,23725
Cherukunnu,city,Kerala,India,11.64,75.75,131,114063
Cherumangalur,city,Kerala,India,11.3,75.98,114,31886
Cherupazhasshi,city,Kerala,India,11.96,75.47,216,71160
Cheruppa,city,Kerala,India,11.27,75.92,59,56802
Cheruppa,city,Kerala,India,11.25,75.92,62,64505
Cheruppad,city,Kerala,India,11.26,75.99,111,54968
Cheruppulasseri,city,Kerala,India,10.88,76.32,229,112623
Cherupunna,city,Kerala,India,10.83,75.92,3,147379
Cherur,city,Kerala,India,12.5,75.04,52,75325
Cherusola,city,Kerala,India,10.98,75.99,101,172373
Cheruthuruthi,city,Kerala,India,10.74,76.28,190,127398
Cheruvalli,city,Kerala,India,9.53,76.77,223,105094
Cheruvannur,city,Kerala,India,10.93,75.97,88,200439
Cheruvannur,city,Kerala,India,11.57,75.7,213,116626
Cheruvara,city,Kerala,India,12.46,75.07,249,56219
Cheruvatta,city,Kerala,India,11.3,75.83,95,199833
Cheruvattur,city,Kerala,India,10.94,75.92,6,189850
Cheruvaya,city,Kerala,India,10.68,75.98,19,79232
Cheruvaylkkara,city,Kerala,India,10.79,75.97,3,223641
Cheruvalur,city,Kerala,India,11.53,75.77,183,119239
Cheruvaya,city,Kerala,India,10.69,75.99,26,92248
Chethakal,city,Kerala,India,9.44,76.86,830,52649
Cheticheri,city,Kerala,India,11.99,75.52,68,67435
Chettealattu,city,Kerala,India,11.85,75.98,2627,37884
Chettetodu,city,Kerala,India,12.48,75.13,249,53044
Chettianchal,city,Kerala,India,12.48,75.06,324,61851
Chetwagi,city,Kerala,India,10.53,76.05,45,94878
Chetwayi,city,Kerala,India,10.53,76.05,45,94878
Chevayur,city,Kerala,India,11.29,75.82,104,270146
Chikkilod,city,Kerala,India,11.4,75.79,255,52506
Chilavil,city,Kerala,India,10.96,75.94,32,200448
Chima,city,Kerala,India,12.27,75.25,200,59068
Chimeni,city,Kerala,India,12.26,75.26,830,60087
Chimen,city,Kerala,India,12.26,75.24,236,59185
Chimeni,city,Kerala,India,12.24,75.24,357,59277
Chinappadi,city,Kerala,India,12.55,75.22,308,51543
Chingapuram,city,Kerala,India,11.49,75.65,32,82074
Chirakkal,city,Kerala,India,11.91,75.36,9,31364
Chirakutala,city,Kerala,India,11.83,75.43,49,23116
Chirkanda,city,Kerala,India,12.54,75.25,830,46681
Chirtoti,city,Kerala,India,12.55,75.2,341,51272
Chiruvanjari,city,Kerala,India,11.81,75.62,193,60640
Chittari,city,Kerala,India,12.37,75.08,88,61864
Chittarikal,city,Kerala,India,12.32,75.36,295,58832
Chittariparamba,city,Kerala,India,11.84,75.64,249,40975
Chittur,city,Kerala,India,10.7,76.75,830,44018
Chittur-Cochin,city,Kerala,India,10.7,76.75,830,44018
Chittari,city,Kerala,India,12.37,75.06,39,50395
Chitwye,city,Kerala,India,10.53,76.05,45,94878
Cholai,city,Kerala,India,11.98,75.51,137,72194
Chombal,city,Kerala,India,11.67,75.55,3,84954
Choppeyil,city,Kerala,India,11.79,75.95,2509,37906
Chorod,city,Kerala,India,11.63,75.59,95,123161
Chowghat,city,Kerala,India,10.53,76.05,45,94878
Chulikad,city,Kerala,India,12.42,75.15,170,53044
Chulli,city,Kerala,India,12.44,75.22,259,53549
Chulli,city,Kerala,India,12.33,75.14,95,78218
Chullikaro,city,Kerala,India,12.41,75.24,331,55799
Chulur,city,Kerala,India,11.3,75.94,180,27733
Chuzhali,city,Kerala,India,12.08,75.47,206,65304
Chalil,city,Kerala,India,11.73,75.5,3,79853
Chavasseri,city,Kerala,India,11.95,75.61,229,63939
Chelakkad,city,Kerala,India,11.67,75.7,403,145388
Cheliya,city,Kerala,India,11.42,75.74,3,101193
Chennara,city,Kerala,India,10.84,75.93,3,162773
Cheppilotu,city,Kerala,India,11.76,75.98,2519,37987
Chulur,city,Kerala,India,11.3,75.94,180,21826
City of Lord Anantha,city,Kerala,India,8.49,76.95,3,149750
Cochim,city,Kerala,India,9.95,76.25,9,109027
Cochin,city,Kerala,India,9.95,76.25,9,109027
Coilum,city,Kerala,India,8.88,76.58,3,320022
Coulao,city,Kerala,India,8.88,76.58,3,320022
Cranganore,city,Kerala,India,10.22,76.2,29,152062
Cranganur,city,Kerala,India,10.22,76.2,29,152062
Cundacudvu,city,Kerala,India,9.85,76.27,3,88877
Calicut,city,Kerala,India,11.5,75.97,830,29945
Dalur,city,Kerala,India,12.38,75.17,830,54643
Darbeguni,city,Kerala,India,12.47,75.15,830,53044
Delampadi,city,Kerala,India,12.59,75.28,830,36964
Desinganad,city,Kerala,India,8.88,76.58,3,320022
Desinganadu,city,Kerala,India,8.88,76.58,3,320022
Devikolam,city,Kerala,India,10.06,77.11,5190,29018
Devikulam,city,Kerala,India,10.06,77.11,5190,29018
Dharmadam,city,Kerala,India,11.78,75.46,3,36829
Dodda Pare,city,Kerala,India,12.69,75.05,328,56206
Doddadaka,city,Kerala,India,12.45,75.4,889,27319
Doddadala,city,Kerala,India,12.65,75.06,390,54211
Doddadka,city,Kerala,India,12.59,75.2,830,45853
Doddavaikol,city,Kerala,India,12.53,75.16,367,53044
Donikadavu,city,Kerala,India,12.48,75.15,830,53044
Devarkoyil,city,Kerala,India,11.67,75.76,177,111440
Ecchur,city,Kerala,India,11.92,75.44,141,48208
Echipoil,city,Kerala,India,11.81,75.84,2509,38270
Edaccheri,city,Kerala,India,11.68,75.63,200,138861
Edaccheri,city,Kerala,India,11.68,75.62,196,135453
Edacheri,city,Kerala,India,11.76,75.99,2522,38304
Edachova,city,Kerala,India,11.88,75.39,36,28814
Edakanam,city,Kerala,India,11.98,75.64,137,60476
Edakkanad,city,Kerala,India,10.82,75.92,3,151881
Edakkara,city,Kerala,India,11.37,75.78,157,85332
Edakkara,city,Kerala,India,10.64,75.99,22,75294
Edakkazhiyur,city,Kerala,India,10.62,76,19,75671
Edakkulam,city,Kerala,India,11.41,75.73,3,92319
Edakkulam,city,Kerala,India,10.88,75.99,65,186680
Edakkulam,city,Kerala,India,11.41,75.73,3,92319
Edakkad,city,Kerala,India,11.83,75.45,36,26840
Edalayil,city,Kerala,India,11.77,75.85,2509,39587
Edannur,city,Kerala,India,11.72,75.53,6,128085
Edapal,city,Kerala,India,10.78,76,13,219422
Edapalli,city,Kerala,India,10.02,76.31,9,124194
Edapally,city,Kerala,India,10.02,76.31,9,124194
Edappal,city,Kerala,India,10.79,75.98,9,233698
Edappal,city,Kerala,India,10.79,75.99,9,230123
Edappalli,city,Kerala,India,10.02,76.31,9,124194
Edappal,city,Kerala,India,10.78,76,13,219422
Edatilvid,city,Kerala,India,12.06,75.31,101,37129
Edattil,city,Kerala,India,11.79,75.91,2509,37922
Edattirutti,city,Kerala,India,10.36,76.17,68,65105
Edavaga,city,Kerala,India,11.8,75.97,2509,37898
Edavaga,city,Kerala,India,11.75,75.96,2509,38267
Edavanna,city,Kerala,India,11.21,76.14,150,67497
Edavelitodu,city,Kerala,India,11.98,75.76,830,40999
Edavaga,city,Kerala,India,11.74,75.97,2509,38811
Edayanur,city,Kerala,India,11.93,75.51,226,66232
Edayar,city,Kerala,India,10.93,76.11,249,157106
Edayur,city,Kerala,India,10.93,76.11,249,157106
Edekkara,city,Kerala,India,10.67,75.97,16,52361
Elakkara,city,Kerala,India,11.38,75.78,206,72950
Elambilad,city,Kerala,India,11.49,75.63,22,66505
Elambarai,city,Kerala,India,11.93,75.55,239,73702
Elampulavu,city,Kerala,India,10.93,75.94,32,201195
Elamattur,city,Kerala,India,9.43,76.72,173,107983
Elattur,city,Kerala,India,11.34,75.74,3,86732
Elayadam,city,Kerala,India,11.66,75.68,252,145045
Elayavur,city,Kerala,India,11.89,75.41,111,33714
Eleri-East,city,Kerala,India,12.31,75.38,328,56498
Eleri-west,city,Kerala,India,12.33,75.32,830,58782
Elatteri,city,Kerala,India,11.43,75.73,3,108778
Elettil,city,Kerala,India,11.39,75.9,196,18040
Elettil,city,Kerala,India,11.4,75.9,288,18040
Elur,city,Kerala,India,10.07,76.28,3,195356
Eramam,city,Kerala,India,12.15,75.29,278,63124
Eramangalam,city,Kerala,India,11.43,75.79,249,80032
Eramangalam,city,Kerala,India,10.72,75.98,9,104806
Eramangalam,city,Kerala,India,10.72,75.97,9,104431
Eranellur,city,Kerala,India,10.97,75.9,9,152815
Erannoli,city,Kerala,India,11.77,75.52,16,138749
Erattupetta,city,Kerala,India,9.7,76.78,78,81315
Eratupeta,city,Kerala,India,9.7,76.78,78,81315
Eravannur,city,Kerala,India,11.36,75.84,252,51120
Eravannur,city,Kerala,India,11.34,75.85,213,71385
Eravattur,city,Kerala,India,11.58,75.74,203,117830
Erikkamanna,city,Kerala,India,10.78,75.95,3,161112
Erikolam,city,Kerala,India,12.3,75.16,288,64448
Erimala,city,Kerala,India,11.3,75.96,196,25423
Erinhipalam,city,Kerala,India,11.28,75.78,49,247269
Erinkozha,city,Kerala,India,11.77,75.91,2509,37947
Ernacolum,city,Kerala,India,9.97,76.29,6,128774
Ernakulam,city,Kerala,India,9.97,76.29,6,128774
Erokkona,city,Kerala,India,11.41,75.92,196,21149
Erotholiya,city,Kerala,India,11.43,75.99,357,6109
Eruvatti,city,Kerala,India,11.81,75.53,45,112980
Eramala,city,Kerala,India,11.67,75.6,42,132172
Eramala,city,Kerala,India,11.69,75.59,32,126544
Etakkad,city,Kerala,India,11.31,75.77,19,192862
Etakkare,city,Kerala,India,11.35,76.3,206,67497
Etamunda,city,Kerala,India,11.77,75.92,2509,37983
Ettakuni,city,Kerala,India,12.29,75.41,259,53641
Ettikkulam,city,Kerala,India,12.01,75.21,88,21308
Ettumanoor,city,Kerala,India,9.67,76.56,26,106263
Ettumanur,city,Kerala,India,9.67,76.56,26,106263
Ezhur,city,Kerala,India,10.91,75.94,32,199549
Ferok,city,Kerala,India,11.18,75.84,45,239276
Feroke,city,Kerala,India,11.18,75.84,45,239276
Ferokh,city,Kerala,India,11.18,75.84,45,239276
Firthakare,city,Kerala,India,12.51,75.19,830,53044
Fort Cochi,city,Kerala,India,9.95,76.25,9,109027
Fort Cochin,city,Kerala,India,9.95,76.25,9,109027
Fort Kochi,city,Kerala,India,9.95,76.25,9,109027
Fort Kochin,city,Kerala,India,9.95,76.25,9,109027
Gaddemula,city,Kerala,India,12.47,75.14,830,53044
Ganapathivattam,city,Kerala,India,11.66,76.26,3349,49769
Ganapathivattom,city,Kerala,India,11.66,76.26,3349,49769
Gannavam,city,Kerala,India,11.97,75.8,354,40003
Gonipella,city,Kerala,India,12.49,75.11,291,53044
Gosad,city,Kerala,India,12.58,75.13,314,52927
Gramam,city,Kerala,India,10.72,75.95,3,65318
Gramam,city,Kerala,India,11.92,75.69,830,44436
Gurupavanapuri,city,Kerala,India,10.6,76.05,85,157294
Guruvayoor,city,Kerala,India,10.6,76.05,85,157294
Guruvayur,city,Kerala,India,10.6,76.05,85,157294
Hachal Karuk l,city,Kerala,India,9.5,76.63,203,108902
Hanuman Ambalam,city,Kerala,India,10.85,75.95,13,183387
Haripad,city,Kerala,India,9.28,76.44,16,192732
Harnad,city,Kerala,India,12.42,75.05,101,40740
Heruru,city,Kerala,India,12.64,74.97,45,55305
Hesabettu,city,Kerala,India,12.72,74.89,3,32861
Hodotghat,city,Kerala,India,12.36,75.14,364,67319
Hosagame,city,Kerala,India,12.49,75.13,830,53044
Hosdrug,city,Kerala,India,12.32,75.09,65,66644
Hosdrug Fort,city,Kerala,India,12.32,75.09,65,66644
Icchannur,city,Kerala,India,11.36,75.78,88,99931
Ichlampadi,city,Kerala,India,12.61,74.97,236,49101
Ichlangodu,city,Kerala,India,12.64,74.95,36,47050
Idiaki,city,Kerala,India,9.85,76.97,2509,45708
Idikki,city,Kerala,India,9.85,76.97,2509,45708
Idukki,city,Kerala,India,9.85,76.97,2509,45708
Idupai,city,Kerala,India,11.77,75.84,2509,42512
Intad,city,Kerala,India,11.38,75.81,196,45952
Irikkur,city,Kerala,India,11.99,75.55,98,71156
Irimbranallur,city,Kerala,India,10.52,76.1,85,99245
Irinavu,city,Kerala,India,11.96,75.32,3,27415
Iringal,city,Kerala,India,11.56,75.62,3,114330
Iringal,city,Kerala,India,12.08,75.34,45,47290
Iringannur,city,Kerala,India,11.71,75.6,82,135854
Iringavur,city,Kerala,India,10.92,75.95,68,201809
Iringavur,city,Kerala,India,10.92,75.96,68,200391
Irinjalakuda,city,Kerala,India,10.34,76.21,104,70823
Irintanattur,city,Kerala,India,11.8,75.86,2509,37917
Iritity,city,Kerala,India,11.99,75.67,150,52337
Iritti,city,Kerala,India,11.99,75.67,150,52337
Iritty,city,Kerala,India,11.99,75.67,150,52337
Iriveri,city,Kerala,India,11.86,75.47,118,33827
Iriyal,city,Kerala,India,12.39,75.16,413,53637
Iriyanadka,city,Kerala,India,12.5,75.13,410,53044
Iriyel,city,Kerala,India,12.44,75.08,255,52889
Irodott,city,Kerala,India,12.18,75.42,173,63417
Irturti,city,Kerala,India,12.3,75.2,196,58766
Iruvallur,city,Kerala,India,11.37,75.83,229,35164
Iruvapuzhanambram,city,Kerala,India,12,75.47,29,77261
Iswaramangalam,city,Kerala,India,10.79,75.96,3,202419
Ittakad,city,Kerala,India,12.47,75.19,830,53044
Ittilatil,city,Kerala,India,11.76,75.85,2509,49087
Iyyad,city,Kerala,India,11.42,75.87,232,47882
Iyyad,city,Kerala,India,11.41,75.87,275,37528
Iyyangod,city,Kerala,India,11.7,75.66,203,158375
Izhuvattirutti,city,Kerala,India,10.79,75.95,3,171062
Izhuvattirutti,city,Kerala,India,10.78,75.94,3,161112
Jumath Palli,city,Kerala,India,10.73,75.95,3,83390
Kabicchamal,city,Kerala,India,12.04,75.41,318,71771
Kaccheri,city,Kerala,India,11.31,75.99,150,17857
Kaccheri,city,Kerala,India,11.69,75.61,118,134849
Kaccheri,city,Kerala,India,11.28,75.78,29,223549
Kaccheri,city,Kerala,India,11.69,75.62,187,138910
Kadagassheri,city,Kerala,India,10.85,75.99,13,198842
Kadakal,city,Kerala,India,8.83,76.92,249,102955
Kadakkal,city,Kerala,India,8.83,76.92,249,102955
Kadalur,city,Kerala,India,11.39,75.72,3,67328
Kadalur,city,Kerala,India,11.47,75.63,3,52724
Kadambaru,city,Kerala,India,12.72,74.92,170,47299
Kadameri,city,Kerala,India,11.64,75.67,275,130835
Kadancheri,city,Kerala,India,10.83,75.99,16,220163
Kadangilavayal,city,Kerala,India,11.77,75.84,2509,49919
Kadankota Male,city,Kerala,India,12.21,75.14,39,43676
Kadar,city,Kerala,India,12.59,75.09,288,53044
Kadavanad,city,Kerala,India,10.76,75.94,3,113888
Kadavanad,city,Kerala,India,10.76,75.94,3,113888
Kadayattur,city,Kerala,India,11.36,75.93,164,6109
Kadikkad,city,Kerala,India,10.67,75.98,26,62894
Kadikkad,city,Kerala,India,10.68,75.98,16,71085
Kadiyangad,city,Kerala,India,11.6,75.76,137,117610
Kadnemula,city,Kerala,India,12.23,75.11,91,32559
Kadonkota,city,Kerala,India,12.21,75.14,68,43676
Kadumane,city,Kerala,India,12.3,75.34,380,60413
Kadungallur,city,Kerala,India,10.92,75.97,114,194992
Kaduthuruthi,city,Kerala,India,9.75,76.5,39,87177
Kaduthuruthy,city,Kerala,India,9.75,76.5,39,87177
Kaduturutti,city,Kerala,India,9.75,76.5,39,87177
Kaduvanadka,city,Kerala,India,12.52,75.18,830,53044
Kaikotkado,city,Kerala,India,12.12,75.17,39,64138
Kailar,city,Kerala,India,8.71,77.13,990,56207
Kaimalassheri,city,Kerala,India,10.85,75.93,9,158804
Kaippakancheri,city,Kerala,India,10.94,75.99,187,178707
Kaippakancheri,city,Kerala,India,10.95,75.99,160,177279
Kaithari,city,Kerala,India,11.85,75.59,249,59081
Kaiyaru,city,Kerala,India,12.67,74.96,249,56933
Kakkad,city,Kerala,India,11.3,75.99,170,30054
Kakkad,city,Kerala,India,9.88,76.48,9,78675
Kakkadavu,city,Kerala,India,12.27,75.29,275,60902
Kakkampalli,city,Kerala,India,11.67,75.64,252,151216
Kakkancheri,city,Kerala,India,11.47,75.75,36,127418
Kakkat,city,Kerala,India,12.29,75.14,144,70071
Kakkata,city,Kerala,India,12.46,75.21,830,53178
Kakkayam,city,Kerala,India,11.25,75.83,190,289408
Kakkon,city,Kerala,India,12.51,75.13,291,53044
Kakkottiri,city,Kerala,India,11.32,75.92,147,13506
Kaladi,city,Kerala,India,10.17,76.43,29,131974
Kaladittara,city,Kerala,India,10.89,75.99,131,184445
Kalady,city,Kerala,India,10.17,76.43,29,131974
Kalanad,city,Kerala,India,12.5,74.98,32,56580
Kalanadu,city,Kerala,India,12.46,75.02,82,46159
Kalanadu,city,Kerala,India,12.5,74.98,32,56580
Kalarantiri,city,Kerala,India,11.38,75.94,173,6109
Kalat Ambalam,city,Kerala,India,10.94,75.89,3,134191
Kalat Kadapram,city,Kerala,India,10.94,75.88,3,114441
Kalattinkunnu,city,Kerala,India,11.26,75.78,42,205192
Kaleyaradka,city,Kerala,India,12.45,75.13,830,53044
Kalicut,city,Kerala,India,11.25,75.78,6,187787
Kalikavu,city,Kerala,India,11.17,76.33,213,67497
Kalingal,city,Kerala,India,11.75,75.85,2509,49087
Kalingat,city,Kerala,India,12.32,75.18,259,58936
Kaliyali,city,Kerala,India,12.45,75.12,383,53044
Kaliyathil,city,Kerala,India,11.9,75.75,337,40975
Kaliyuru,city,Kerala,India,12.74,74.94,252,55309
Kallad,city,Kerala,India,11.66,75.76,167,112571
Kallai,city,Kerala,India,11.71,75.53,3,116133
Kallamala,city,Kerala,India,11.68,75.56,9,99827
Kallamputtur,city,Kerala,India,11.77,75.9,2509,37924
Kallana,city,Kerala,India,10.27,76.6,1046,34472
Kallangadi,city,Kerala,India,12.53,74.96,42,45859
Kallar,city,Kerala,India,8.71,77.13,990,56207
Kallar,city,Kerala,India,12.43,75.27,406,56839
Kallar-Bridge,city,Kerala,India,8.71,77.13,990,56207
Kallara,city,Kerala,India,12.21,75.35,830,65278
Kallayi,city,Kerala,India,11.71,75.53,3,116133
Kallayi,city,Kerala,India,11.89,75.52,114,50663
Kallayi,city,Kerala,India,11.71,75.54,16,124676
Kalliot,city,Kerala,India,12.41,75.15,255,53080
Kalliyassher,city,Kerala,India,11.98,75.33,3,30849
Kalliyassheri,city,Kerala,India,11.98,75.36,3,40787
Kallod,city,Kerala,India,11.57,75.77,229,119155
Kallur,city,Kerala,India,10.84,76,16,210446
Kallar,city,Kerala,India,9.82,77.16,3349,56960
Kallod,city,Kerala,India,11.58,75.75,213,118756
Kallur,city,Kerala,India,11.59,75.75,173,117946
Kalmadi,city,Kerala,India,12.51,74.97,36,51643
Kalnad,city,Kerala,India,12.46,75,39,43217
Kalpalli,city,Kerala,India,11.25,75.94,62,51627
Kalpatta,city,Kerala,India,11.61,76.08,2549,55200
Kalpatta,city,Kerala,India,11.64,75.96,2657,55120
Kalpattur,city,Kerala,India,11.53,75.72,278,118360
Kalpetta,city,Kerala,India,11.61,76.08,2549,55200
Kalur,city,Kerala,India,10.8,75.93,3,159192
Kamala,city,Kerala,India,12.45,75.17,830,53044
Kamancheri,city,Kerala,India,10.83,75.93,3,187393
Kamaniya,city,Kerala,India,12.52,75.19,295,53044
Kambalur,city,Kerala,India,12.28,75.34,246,61452
Kambatti,city,Kerala,India,11.82,75.93,2509,37968
Kambil,city,Kerala,India,11.97,75.4,32,55257
Kamett,city,Kerala,India,11.88,75.49,121,42975
Kammada,city,Kerala,India,12.36,75.25,830,58597
Kammadan,city,Kerala,India,12.3,75.31,374,59658
Kana,city,Kerala,India,12.58,74.97,22,48704
Kanagari,city,Kerala,India,9.7,76.55,118,84402
Kanakarry,city,Kerala,India,9.7,76.55,118,84402
Kanakatodi,city,Kerala,India,12.59,75.16,830,50692
Kanakod,city,Kerala,India,12.57,75.16,830,52849
Kanaleri,city,Kerala,India,11.9,75.6,252,56548
Kanayannur,city,Kerala,India,11.88,75.47,187,38409
Kanayi,city,Kerala,India,12.12,75.27,49,65426
Kanayi Vayal,city,Kerala,India,12.11,75.27,52,60232
Kandakkadava,city,Kerala,India,9.85,76.27,3,88877
Kandakkayi,city,Kerala,India,12.01,75.43,147,73906
Kandalur,city,Kerala,India,10.93,75.95,49,201803
Kandamkunnu,city,Kerala,India,11.86,75.59,209,56745
Kandankavi,city,Kerala,India,12.09,75.21,36,75268
Kandanur,city,Kerala,India,11.37,75.8,154,86599
Kandanvail,city,Kerala,India,12.31,75.13,137,79324
Kanderipoyil,city,Kerala,India,11.87,75.63,216,43221
Kanderi,city,Kerala,India,11.86,75.57,183,60595
Kandott,city,Kerala,India,12.12,75.22,55,81661
Kangazha,city,Kerala,India,9.52,76.7,269,99645
Kanhangad,city,Kerala,India,12.32,75.07,0,57038
Kanhangad,city,Kerala,India,12.25,75.1,88,34546
Kanipura,city,Kerala,India,12.6,74.95,144,38655
Kaniyadka,city,Kerala,India,12.47,75.05,285,61963
Kaniyaram,city,Kerala,India,11.81,75.99,2509,37894
Kaniyambetta,city,Kerala,India,11.7,76.1,2509,47746
Kanjaripalli,city,Kerala,India,9.55,76.79,164,103798
Kanjingaladka,city,Kerala,India,12.44,75.05,187,52435
Kanjirapalli,city,Kerala,India,9.55,76.79,164,103798
Kanmanam,city,Kerala,India,10.91,75.98,127,189711
Kannadi,city,Kerala,India,11.61,75.77,144,116906
Kannadi,city,Kerala,India,9.95,76.82,147,37849
Kannadiparamba,city,Kerala,India,11.94,75.4,19,44776
Kannambail,city,Kerala,India,12.39,75.07,160,52288
Kannamvelli,city,Kerala,India,11.75,75.58,147,140974
Kannankara,city,Kerala,India,11.36,75.79,121,86599
Kannankara,city,Kerala,India,11.35,75.8,127,108117
Kannapuram,city,Kerala,India,11.98,75.3,9,26426
Kannavam,city,Kerala,India,11.84,75.66,265,40975
Kannavam,city,Kerala,India,11.86,75.65,223,40980
Kannenkod,city,Kerala,India,11.42,75.78,249,75234
Kanni Paramba,city,Kerala,India,11.26,75.94,68,46251
Kannikkavu,city,Kerala,India,11.46,75.78,101,107150
Kanniparamba,city,Kerala,India,11.28,75.94,91,37068
Kanniramukku,city,Kerala,India,10.77,75.96,3,183558
Kanniramukku,city,Kerala,India,10.77,75.96,3,183558
Kannirod,city,Kerala,India,11.92,75.46,193,54354
Kannoth,city,Kerala,India,11.85,75.99,2749,37886
Kannottu,city,Kerala,India,11.82,75.92,2509,38093
Kannukkara,city,Kerala,India,11.66,75.57,42,98519
Kannur,city,Kerala,India,11.87,75.37,6,20372
Kannadi Camp Shed,city,Kerala,India,9.95,76.82,147,37849
Kannur,city,Kerala,India,11.45,75.74,29,125486
Kannuru,city,Kerala,India,12.58,74.98,301,53511
Kanoor,city,Kerala,India,11.87,75.37,6,20372
Kanoth,city,Kerala,India,11.89,75.82,403,40772
Kanoth,city,Kerala,India,11.79,75.8,1669,57080
Kanthapuram,city,Kerala,India,11.43,75.9,183,41596
Kantur,city,Kerala,India,12.5,75.15,167,53044
Kanur,city,Kerala,India,10.88,75.9,3,143476
Kapiye,city,Kerala,India,12.45,75.09,108,53044
Kappad,city,Kerala,India,11.88,75.44,219,34394
Kappu,city,Kerala,India,11.62,75.76,134,116651
Kappumala,city,Kerala,India,11.67,75.71,291,139865
Kappummal,city,Kerala,India,11.76,75.96,2509,38054
Kara,city,Kerala,India,11.92,75.56,239,71622
Karadka,city,Kerala,India,12.54,75.15,830,53044
Karakachal,city,Kerala,India,9.5,76.63,203,108902
Karakoda,city,Kerala,India,11.76,75.86,2509,41933
Karandott,city,Kerala,India,11.66,75.74,183,118773
Karannur,city,Kerala,India,11.33,75.77,16,148998
Karantur,city,Kerala,India,11.3,75.87,147,129220
Karattur,city,Kerala,India,10.86,75.96,36,190035
Karayappa,city,Kerala,India,11.93,75.42,42,47823
Karetta,city,Kerala,India,11.9,75.59,249,58623
Kariath,city,Kerala,India,12.44,75.11,164,53044
Karicheri,city,Kerala,India,12.46,75.08,272,54615
Karike,city,Kerala,India,12.45,75.39,839,33346
Karimbil,city,Kerala,India,11.78,75.88,2572,37916
Karimbli,city,Kerala,India,11.5,75.95,390,40091
Karimbula,city,Kerala,India,10.92,76.42,216,74274
Karimkannum,city,Kerala,India,9.85,76.68,288,53097
Karimkunnum,city,Kerala,India,9.85,76.68,288,53097
Karimpuzha,city,Kerala,India,10.92,76.42,216,74274
Karindala,city,Kerala,India,12.27,75.24,236,58862
Karindala,city,Kerala,India,12.28,75.24,410,58779
Karingamanna,city,Kerala,India,11.4,75.95,209,6109
Karingana,city,Kerala,India,12.6,74.99,272,52983
Karingari,city,Kerala,India,11.73,75.99,2509,39390
Karinkallu,city,Kerala,India,11.72,75.77,1227,106918
Karinkappara,city,Kerala,India,10.99,75.94,45,178746
Karinkappara,city,Kerala,India,10.99,75.94,45,180169
Karipadadkathe,city,Kerala,India,12.45,75.09,278,53044
Karipodi,city,Kerala,India,12.42,75.04,95,37086
Kariyad,city,Kerala,India,11.7,75.58,36,127823
Kariyakkunnu,city,Kerala,India,11.25,75.79,52,222665
Karketadka,city,Kerala,India,12.47,75.11,406,53044
Karkundu,city,Kerala,India,12.37,75.11,121,77241
Karlath,city,Kerala,India,12.31,75.24,393,58761
Karttigappalli,city,Kerala,India,11.64,75.63,239,148444
Karugattirutti,city,Kerala,India,10.76,75.95,3,140833
Karukachal,city,Kerala,India,9.5,76.63,203,108902
Karumala,city,Kerala,India,11.45,75.88,164,65777
Karunagapalli,city,Kerala,India,9.1,76.55,49,163667
Karurapadna,city,Kerala,India,10.27,76.2,42,179902
Karuvaltadka,city,Kerala,India,12.57,75.09,400,53044
Karuvampoyil,city,Kerala,India,11.35,75.93,160,6109
Karuvancheri,city,Kerala,India,11.56,75.65,55,125891
Karuvangattu,city,Kerala,India,12.5,75.14,410,53044
Karuvapadna,city,Kerala,India,10.27,76.2,42,179902
Karuvarkunou,city,Kerala,India,11.11,76.33,239,67211
Karuvellur,city,Kerala,India,12.17,75.19,55,69730
Karuvellur,city,Kerala,India,12.18,75.19,82,64682
Karuvissheri,city,Kerala,India,11.3,75.78,36,211701
Karuvarakkundu,city,Kerala,India,11.11,76.33,239,67211
Karuvarakundu,city,Kerala,India,11.11,76.33,239,67211
Karivallur,city,Kerala,India,11.88,75.63,219,43545
Kasaragod,city,Kerala,India,12.5,74.99,32,60110
Kasaragod Fort,city,Kerala,India,12.5,74.99,32,60110
Kashakuttam,city,Kerala,India,8.56,76.88,22,139683
Katavallur,city,Kerala,India,10.7,76.1,200,136122
Katikaje,city,Kerala,India,12.53,75.27,902,46118
Katirur,city,Kerala,India,11.78,75.53,26,134432
Kattanam,city,Kerala,India,9.18,76.55,42,180023
Kattapalli,city,Kerala,India,12.27,75.47,1774,46137
Kattipalle,city,Kerala,India,12.5,75.11,341,53044
Kattiyeri,city,Kerala,India,11.76,75.84,2509,53927
Kattur,city,Kerala,India,11.94,75.58,209,71499
Kavil,city,Kerala,India,11.48,75.76,68,120999
Kavilampara,city,Kerala,India,11.65,75.77,167,112997
Kaviyur,city,Kerala,India,11.71,75.56,42,136203
Kavu Kshetram,city,Kerala,India,10.96,75.99,85,177279
Kavumpadi,city,Kerala,India,11.92,75.68,305,44863
Kavumvattam,city,Kerala,India,11.46,75.73,42,129179
Kavungal,city,Kerala,India,11.79,75.98,2509,37907
Kavuntara,city,Kerala,India,11.51,75.76,118,119259
Kavuntaya,city,Kerala,India,11.93,75.48,216,60963
Kavvayi,city,Kerala,India,12.09,75.18,3,65995
Kayakkodi,city,Kerala,India,11.68,75.73,239,128991
Kayakkodi,city,Kerala,India,11.68,75.75,229,113946
Kayamkulam,city,Kerala,India,9.17,76.5,26,225060
Kayangulam,city,Kerala,India,9.17,76.5,26,225060
Kayani,city,Kerala,India,11.89,75.56,229,62358
Kayankulam,city,Kerala,India,9.17,76.5,26,225060
Kayanna,city,Kerala,India,11.54,75.8,193,119238
Kayanna,city,Kerala,India,11.53,75.81,236,119241
Kayaralam,city,Kerala,India,12,75.42,111,68874
Kayaralam,city,Kerala,India,12.01,75.42,6,71705
Kayenikan,city,Kerala,India,12.54,75.23,830,51066
Kayyuru,city,Kerala,India,12.26,75.21,295,58816
Kazhakuttam,city,Kerala,India,8.56,76.88,22,139683
Kazhakuttani,city,Kerala,India,8.56,76.88,22,139683
Kazhinnikkara,city,Kerala,India,10.86,75.95,36,188549
Kazhukottur,city,Kerala,India,11.8,75.95,2509,37893
Kedambadi,city,Kerala,India,12.76,74.91,55,90773
Kedavur,city,Kerala,India,11.43,75.92,226,27523
Kedavur,city,Kerala,India,11.41,75.94,223,10310
Keevallur,city,Kerala,India,11.9,75.53,131,56081
Keevallur,city,Kerala,India,11.92,75.53,196,66414
Kellur,city,Kerala,India,11.74,76.03,2509,39071
Keloth,city,Kerala,India,12.37,75.1,183,70413
Keloth,city,Kerala,India,11.89,75.81,383,40797
Keraladhiswarapuram,city,Kerala,India,10.95,75.89,3,136837
Keraladhiswarapuram,city,Kerala,India,10.95,75.89,6,136837
Kezhariyur,city,Kerala,India,11.49,75.69,124,124226
Kiduru,city,Kerala,India,12.64,74.98,134,53737
Kikana,city,Kerala,India,12.38,75.06,88,42907
Kikanam,city,Kerala,India,12.27,75.23,196,58794
Kilakkettara,city,Kerala,India,10.62,76.7,370,44866
Kilalur,city,Kerala,India,11.85,75.49,49,43774
Kilikkollur,city,Kerala,India,8.91,76.7,59,194578
Kilimanur,city,Kerala,India,8.75,76.87,157,145485
Kiliyambilayi,city,Kerala,India,11.58,75.79,203,119062
Kiluparamba,city,Kerala,India,11.27,76.02,196,44853
Kilayyikote,city,Kerala,India,12.24,75.17,170,58831
Kinalur,city,Kerala,India,11.47,75.86,259,101898
Kinanu,city,Kerala,India,12.37,75.25,830,57915
Kinanur,city,Kerala,India,12.3,75.22,347,58763
Kiningal,city,Kerala,India,12.6,75.17,301,49896
Kinalur,city,Kerala,India,11.46,75.86,154,88606
Kinanur,city,Kerala,India,12.31,75.27,259,58867
Kiracchi,city,Kerala,India,11.87,75.54,131,57151
Kiriyad,city,Kerala,India,12.03,75.41,111,74517
Kiralur,city,Kerala,India,11.31,75.81,68,216079
Kizhake Chalakudi,city,Kerala,India,10.3,76.34,137,114210
Kizhakkettara,city,Kerala,India,10.62,76.7,370,44866
Kizhakkott,city,Kerala,India,11.36,75.9,154,6109
Kizhakkott,city,Kerala,India,11.37,75.9,160,6225
Kizhakkummuri,city,Kerala,India,11.33,75.82,124,154073
Kizhal,city,Kerala,India,11.59,75.62,137,139421
Kizhariyur,city,Kerala,India,11.5,75.68,131,116916
Kizhattur,city,Kerala,India,12.03,75.36,104,50919
Kizhillam,city,Kerala,India,10.07,76.53,173,20846
Kizhinnanyam,city,Kerala,India,11.57,75.76,246,119139
Kizhpalli,city,Kerala,India,11.97,75.78,830,40975
Kizhtalli,city,Kerala,India,11.87,75.41,134,29080
Kizhur,city,Kerala,India,11.97,75.68,265,51240
Kizhur,city,Kerala,India,11.98,75.66,144,52762
Kochi,city,Kerala,India,9.95,76.25,9,109027
Koczin,city,Kerala,India,9.95,76.25,9,109027
Kodakallur,city,Kerala,India,11.55,75.82,249,119236
Kodallur,city,Kerala,India,12,75.38,32,55913
Kodancheri Palli,city,Kerala,India,10.73,75.97,6,110919
Kodancheri,city,Kerala,India,11.69,75.62,157,136198
Kodassheri,city,Kerala,India,11.41,75.77,180,72379
Kodavalipuram,city,Kerala,India,11.96,75.55,141,74681
Kodayattur,city,Kerala,India,11.27,75.99,111,49517
Kodayattur,city,Kerala,India,11.28,75.99,124,43863
Kodibail,city,Kerala,India,12.67,74.92,39,41864
Kodiyamme,city,Kerala,India,12.61,74.97,282,47772
Kodiyathur,city,Kerala,India,11.28,75.99,124,43863
Kodiyeri,city,Kerala,India,11.74,75.54,52,158525
Kodiyeri,city,Kerala,India,11.74,75.52,29,129927
Kodkat,city,Kerala,India,12.21,75.19,85,59122
Kodlamogar,city,Kerala,India,12.74,74.97,114,54818
Kodoth,city,Kerala,India,12.41,75.19,341,54131
Kodoth,city,Kerala,India,12.31,75.19,177,58538
Kodoth,city,Kerala,India,12.41,75.2,830,54418
Kodungalloor,city,Kerala,India,10.22,76.2,29,152062
Kodungallur,city,Kerala,India,10.22,76.2,29,152062
Koduvalli,city,Kerala,India,11.35,75.9,157,8433
Koggra,city,Kerala,India,11.84,75.85,2742,39015
Koilthottum,city,Kerala,India,8.98,76.53,13,287234
Koipadi,city,Kerala,India,12.59,74.96,308,43167
Kojikode,city,Kerala,India,11.25,75.78,6,187787
Kokkad,city,Kerala,India,11.59,75.79,206,118564
Kokkal,city,Kerala,India,12.16,75.15,3,44435
Kokkallur,city,Kerala,India,11.43,75.8,259,81376
Kokkallur,city,Kerala,India,11.45,75.79,216,93430
Kokkanissheri,city,Kerala,India,12.12,75.2,59,80858
Kokkanisseri,city,Kerala,India,12.11,75.21,52,80756
Kokkanissheri,city,Kerala,India,12.11,75.21,52,80756
Kolaccheri,city,Kerala,India,11.98,75.42,49,64668
Kolacherry,city,Kerala,India,11.98,75.42,49,64668
Kolakkad,city,Kerala,India,11.39,75.77,193,70798
Kolakkad,city,Kerala,India,11.4,75.74,3,72405
Kolakkad,city,Kerala,India,11.48,75.67,13,104124
Kolamo,city,Kerala,India,8.88,76.58,3,320022
Kolantha,city,Kerala,India,12,75.54,229,66262
Kolantha,city,Kerala,India,12.02,75.49,321,68180
Kolarangode,city,Kerala,India,12.43,75.12,154,53044
Kolari,city,Kerala,India,11.93,75.61,249,60643
Kolattupula,city,Kerala,India,8.91,77.05,403,40528
Kolattupuzha,city,Kerala,India,8.91,77.05,403,40528
Kolattur,city,Kerala,India,11.41,75.79,249,61390
Kolattur,city,Kerala,India,12.1,75.45,830,65095
Kolaturu,city,Kerala,India,12.46,75.11,406,53044
Kolaturu,city,Kerala,India,12.46,75.11,406,53044
Kolavallur,city,Kerala,India,11.75,75.62,141,95055
Kolentha,city,Kerala,India,12.01,75.54,416,65373
Koliadka,city,Kerala,India,12.5,75.15,167,53044
Kolikadavu,city,Kerala,India,11.93,75.85,859,38329
Kolikod,city,Kerala,India,11.25,75.78,6,187787
Kolinjampara,city,Kerala,India,10.74,76.83,830,45456
Kolitottattutura,city,Kerala,India,8.98,76.53,13,287234
Kolitottattuturu,city,Kerala,India,8.98,76.53,13,287234
Koliyat,city,Kerala,India,11.85,75.69,236,40975
Koliyura,city,Kerala,India,12.74,74.96,223,53925
Kolkare,city,Kerala,India,12.47,75.21,830,53044
Kollam,city,Kerala,India,11.46,75.68,6,90603
Kollam,city,Kerala,India,8.88,76.58,3,320022
Kollangod,city,Kerala,India,10.62,76.7,370,44866
Kollengode,city,Kerala,India,10.62,76.7,370,44866
Kollikale,city,Kerala,India,11.45,75.91,259,45458
Kollatu,city,Kerala,India,12.27,75.34,265,62030
Kololambu,city,Kerala,India,10.74,75.99,6,181303
Kololambu,city,Kerala,India,10.76,75.99,3,207256
Kolote,city,Kerala,India,12.48,75.1,393,54243
KolÂ·lam,city,Kerala,India,8.88,76.58,3,320022
Kolat,city,Kerala,India,11.98,75.55,98,72920
Komangala,city,Kerala,India,12.71,74.98,242,54470
Kome,city,Kerala,India,12.47,75.09,324,54227
Kommeri,city,Kerala,India,11.85,75.73,311,40975
Kondalseri,city,Kerala,India,8.8,76.67,3,86329
Kondotti,city,Kerala,India,11.14,75.97,147,95209
Kondotty,city,Kerala,India,11.14,75.97,147,95209
Kondur,city,Kerala,India,9.7,76.81,278,78693
Kongannur,city,Kerala,India,11.38,75.75,45,79580
Kongad,city,Kerala,India,10.85,76.52,223,48973
Koni,city,Kerala,India,9.23,76.87,196,55459
Koniyankallu,city,Kerala,India,12.26,75.45,1748,54387
Konni,city,Kerala,India,9.23,76.87,196,55459
Konott,city,Kerala,India,11.31,75.85,104,159454
Koothattukulam,city,Kerala,India,9.87,76.6,219,90990
Korad,city,Kerala,India,10.98,75.91,9,165932
Koratti,city,Kerala,India,11.56,75.79,177,119242
Korom,city,Kerala,India,12.13,75.23,75,82658
Koroth,city,Kerala,India,11.74,75.88,2608,40145
Kotacheri,city,Kerala,India,12.33,75.07,68,59018
Kotamangalam,city,Kerala,India,10.06,76.63,39,88098
Kotattupuzha,city,Kerala,India,8.91,77.05,403,40528
Kotayam,city,Kerala,India,9.59,76.52,9,210083
Kotayem,city,Kerala,India,11.83,75.55,111,84393
Kotekar,city,Kerala,India,12.6,74.96,232,43167
Kotekurpu,city,Kerala,India,12.19,75.14,3,38141
Kotepora,city,Kerala,India,12.24,75.13,78,44238
Kotikal,city,Kerala,India,12.42,75.02,3,26400
Kotta Kunnu,city,Kerala,India,12.25,75.34,410,63322
Kottakkal,city,Kerala,India,11,76.01,85,166250
Kottar,city,Kerala,India,8.9,76.73,62,138013
Kottara,city,Kerala,India,8.9,76.73,62,138013
Kottattara,city,Kerala,India,11.68,75.99,2509,43320
Kottattara,city,Kerala,India,10.8,75.95,3,196132
Kottattur,city,Kerala,India,10.7,75.97,16,82340
Kottayad,city,Kerala,India,12.01,75.45,82,76709
Kottayam,city,Kerala,India,9.59,76.52,9,210083
Kottayam,city,Kerala,India,11.83,75.55,111,84393
Kottayambram,city,Kerala,India,11.7,75.62,173,138910
Kottayil,city,Kerala,India,12.11,75.26,49,75508
Kottila,city,Kerala,India,12.05,75.31,19,35490
Kottiyana,city,Kerala,India,12.48,75.11,150,53044
Kottumbe,city,Kerala,India,12.55,75.21,341,51543
Kottur,city,Kerala,India,11.5,75.78,413,119272
Kotturu,city,Kerala,India,11.82,75.45,36,27199
Kottarakara,city,Kerala,India,9,76.8,167,84831
Kottuli,city,Kerala,India,11.27,75.8,101,282009
Kovalam,city,Kerala,India,8.37,77,0,75632
Kovilam,city,Kerala,India,8.37,77,0,75632
Kovilkandi,city,Kerala,India,11.44,75.69,3,89122
Kovilodu,city,Kerala,India,11.86,75.53,101,57686
Kovumbhagam,city,Kerala,India,11.76,75.49,6,91042
Kovur,city,Kerala,India,11.26,75.83,196,271701
Kovur,city,Kerala,India,11.27,75.85,232,247731
Kovvantala,city,Kerala,India,12,75.47,36,77304
Kovur,city,Kerala,India,11.97,75.51,255,74006
Koyadu,city,Kerala,India,11.86,75.44,180,32773
Koyakkad,city,Kerala,India,11.47,75.76,42,119081
Koyangodechal,city,Kerala,India,12.46,75.06,252,55886
Koyappalli Ambalam,city,Kerala,India,10.7,75.99,22,110979
Koyilandi,city,Kerala,India,11.44,75.69,3,89122
Koyimanna,city,Kerala,India,11.31,75.91,144,30743
Koyyam,city,Kerala,India,12.02,75.46,62,73353
Koyyam,city,Kerala,India,12.01,75.47,36,77304
Kozhancheri,city,Kerala,India,9.35,76.7,36,86174
Kozhencheri,city,Kerala,India,9.35,76.7,36,86174
Kozhikkot,city,Kerala,India,11.25,75.78,6,187787
Kozhikode,city,Kerala,India,11.25,75.78,6,187787
Kozhinjampara,city,Kerala,India,10.74,76.83,830,45456
Kozhipram,city,Kerala,India,11.49,75.64,32,74329
KozsÃ­kode,city,Kerala,India,11.25,75.78,6,187787
KoÅ¾ikodÄ,city,Kerala,India,11.25,75.78,6,187787
Kubanuru,city,Kerala,India,12.67,74.94,167,53200
Kuchi Bandar,city,Kerala,India,9.95,76.25,9,109027
Kudali,city,Kerala,India,11.92,75.47,203,55870
Kudalmerkala,city,Kerala,India,12.66,75,213,53392
Kudambur,city,Kerala,India,11.81,75.46,6,26259
Kudana,city,Kerala,India,12.42,75.11,334,53373
Kudattayi,city,Kerala,India,11.4,75.96,236,6109
Kudayattur,city,Kerala,India,9.8,76.8,2509,45330
Kudiatakda,city,Kerala,India,12.5,75.17,830,53044
Kudumbur,city,Kerala,India,12.46,75.24,351,53939
Kuduretodu,city,Kerala,India,12.5,75.14,246,53044
Kula,city,Kerala,India,12.62,75.19,314,44282
Kulakkod,city,Kerala,India,11.29,75.91,95,56950
Kulattur,city,Kerala,India,10.94,76.14,226,150160
Kulikal,city,Kerala,India,11.88,75.57,160,59014
Kuliyat,city,Kerala,India,12.25,75.26,377,60087
Kullamalai,city,Kerala,India,8.88,76.58,3,320022
Kumaragam,city,Kerala,India,9.6,76.43,13,85379
Kumaraham,city,Kerala,India,9.6,76.43,13,85379
Kumarakom,city,Kerala,India,9.6,76.43,13,85379
Kumaramangalam,city,Kerala,India,10.92,75.93,19,194734
Kumaranallur,city,Kerala,India,9.62,76.58,26,159310
Kumbadaje,city,Kerala,India,12.59,75.13,216,52865
Kumbla,city,Kerala,India,12.59,74.94,55,32619
Kumbla,city,Kerala,India,12.6,74.94,65,32102
Kumeri,city,Kerala,India,12.48,75.13,216,53044
Kummangod,city,Kerala,India,11.68,75.64,246,143965
Kummankod,city,Kerala,India,11.68,75.66,275,160652
Kummankod,city,Kerala,India,11.68,75.65,275,158624
Kumulli,city,Kerala,India,11.43,75.76,101,98257
Kunam,city,Kerala,India,12.06,75.43,324,66828
Kunamkulam,city,Kerala,India,10.65,76.07,160,143010
Kunancheri,city,Kerala,India,11.44,75.78,196,92625
Kundadka,city,Kerala,India,12.49,75.03,154,72925
Kundakochi,city,Kerala,India,12.49,75.17,275,53044
Kundangoli,city,Kerala,India,12.46,75.14,830,53044
Kundangoli Kote,city,Kerala,India,12.46,75.13,830,53044
Kunduvati,city,Kerala,India,12.23,75.35,830,64846
Kundya,city,Kerala,India,12.42,75.08,226,52342
Kundayi,city,Kerala,India,11.41,75.87,259,37528
Kunikuravu,city,Kerala,India,11.76,75.93,2509,37987
Kuningad,city,Kerala,India,11.66,75.64,252,147224
Kunithala,city,Kerala,India,11.89,75.72,278,40975
Kunjatturu,city,Kerala,India,12.75,74.89,16,56089
Kunnagei,city,Kerala,India,12.3,75.28,170,59565
Kunnakadu,city,Kerala,India,12.37,75.37,830,48970
Kunnamangalam,city,Kerala,India,11.31,75.88,118,72759
Kunnamkulam,city,Kerala,India,10.65,76.07,160,143010
Kunnaramvelli,city,Kerala,India,11.51,75.78,400,119255
Kunnariyam,city,Kerala,India,12.06,75.22,26,47486
Kunnariyam,city,Kerala,India,12.05,75.22,32,39950
Kunnassheri,city,Kerala,India,11.63,75.78,150,115485
Kunnathra,city,Kerala,India,11.42,75.76,173,89776
Kunnattara,city,Kerala,India,11.43,75.74,22,110847
Kunnummakkara,city,Kerala,India,11.67,75.58,26,111765
Kunnummakkara,city,Kerala,India,11.66,75.58,45,117262
Kunnummal,city,Kerala,India,11.68,75.71,387,142624
Kunnummal Ambalam,city,Kerala,India,10.72,75.98,6,116139
Kunoth,city,Kerala,India,11.96,75.52,242,74032
Kuntaru,city,Kerala,India,12.56,75.21,236,50062
Kuntikana Mata,city,Kerala,India,12.61,75.05,216,53060
Kuppadittara,city,Kerala,India,11.7,76,2509,42033
Kuppam,city,Kerala,India,12.04,75.35,111,50622
Kuramb,city,Kerala,India,12.49,75.2,830,53044
Kurangara,city,Kerala,India,12.4,75.14,370,53272
Kuravalangad,city,Kerala,India,9.75,76.57,157,69487
Kurchamala,city,Kerala,India,11.6,75.99,2805,52758
Kurchinadka,city,Kerala,India,12.46,75.16,830,53044
Kuricchiakam,city,Kerala,India,11.63,75.72,223,114599
Kurichikkara,city,Kerala,India,11.47,75.73,78,130842
Kurikkalat,city,Kerala,India,11.82,75.99,2509,37892
Kurikkilad,city,Kerala,India,11.63,75.61,180,147012
Kuriko,city,Kerala,India,12.29,75.24,393,58779
Kuriya,city,Kerala,India,12.73,74.98,200,54162
Kurumattur,city,Kerala,India,12.03,75.42,141,76149
Kurumbakkal,city,Kerala,India,11.85,75.56,167,63477
Kurumbala,city,Kerala,India,11.69,75.98,2509,42784
Kurumbrakottussher,city,Kerala,India,11.27,75.77,29,188668
Kurumala,city,Kerala,India,11.69,75.97,2509,42747
Kurunnaliyod,city,Kerala,India,11.64,75.63,219,148690
Kuruva,city,Kerala,India,10.98,75.97,72,175931
Kuruvallur,city,Kerala,India,11.42,75.77,213,82261
Kuruvangad,city,Kerala,India,11.45,75.72,3,109969
Kuruvattissheri,city,Kerala,India,10.97,75.91,9,168412
Kuruvattur,city,Kerala,India,11.34,75.84,167,105564
Kuruvattur,city,Kerala,India,11.33,75.85,157,103395
Kuruveli,city,Kerala,India,12.2,75.27,344,62487
Kuruveli,city,Kerala,India,12.18,75.25,150,61776
Kurari,city,Kerala,India,11.99,75.54,124,69405
Kutal,city,Kerala,India,12.54,75.16,830,53044
Kutapanekal,city,Kerala,India,12.45,75.07,236,54571
Kutat,city,Kerala,India,12.22,75.17,88,58549
Kuthale,city,Kerala,India,12.49,75.15,144,53044
Kuthiathode,city,Kerala,India,9.8,76.33,9,117159
Kuthikakam,city,Kerala,India,11.82,75.43,9,20915
Kuthulurmalai,city,Kerala,India,11.79,75.75,1755,65727
Kutiana,city,Kerala,India,12.49,75.11,288,53044
Kutiatodu,city,Kerala,India,9.8,76.33,9,117159
Kutipuram,city,Kerala,India,10.84,76.03,32,196412
Kuttaje,city,Kerala,India,12.78,74.96,213,81434
Kuttambra Mala,city,Kerala,India,11.37,75.89,334,7027
Kuttammakkal,city,Kerala,India,10.85,75.93,9,154756
Kuttampala,city,Kerala,India,12.2,75.37,830,64622
Kuttampuzha,city,Kerala,India,10.15,76.73,200,20673
Kuttangol,city,Kerala,India,12.52,75.15,298,53044
Kuttarobur,city,Kerala,India,11.41,75.85,239,29614
Kuttathulam,city,Kerala,India,9.87,76.6,219,90990
Kuttavu,city,Kerala,India,11.99,75.53,78,69012
Kuttayi,city,Kerala,India,10.85,75.9,3,99255
Kuttiadi,city,Kerala,India,11.65,75.75,134,112799
Kuttikkattur,city,Kerala,India,11.26,75.88,357,152642
Kuttikkol,city,Kerala,India,12.01,75.37,52,56740
Kuttikolu,city,Kerala,India,12.48,75.21,830,53044
Kuttikolu,city,Kerala,India,12.48,75.21,830,53044
Kuttippuram,city,Kerala,India,10.84,76.03,32,196412
Kuttipram,city,Kerala,India,11.67,75.69,367,156821
Kuttipram,city,Kerala,India,11.68,75.7,413,156381
Kuttiyeri,city,Kerala,India,12.07,75.35,49,50455
Kuttiyeri,city,Kerala,India,12.08,75.38,278,58783
Kuttur,city,Kerala,India,10.9,75.96,78,196961
Kuttur,city,Kerala,India,11.68,75.75,200,117832
Kuttyattur,city,Kerala,India,11.97,75.49,206,75245
Kuttyadi,city,Kerala,India,11.65,75.75,134,112799
Kuttattukulam,city,Kerala,India,9.87,76.6,219,90990
Kuttur,city,Kerala,India,12.18,75.36,390,63044
Kutturappan Ambaia,city,Kerala,India,12.15,75.31,101,63094
Kuvare,city,Kerala,India,12.43,75.13,278,53044
Kuvel,city,Kerala,India,11.78,75.91,2509,37920
Kuvott,city,Kerala,India,12.01,75.36,52,53985
Lakkidi,city,Kerala,India,10.75,76.44,216,129168
Lakkiti,city,Kerala,India,10.75,76.44,216,129168
Lokamaleswaram,city,Kerala,India,10.22,76.2,26,149734
Lukkadi,city,Kerala,India,10.75,76.44,216,129168
Lalam,city,Kerala,India,9.72,76.7,45,82786
Maananthavaadi,city,Kerala,India,11.8,76.01,2509,37898
Maccheri,city,Kerala,India,11.89,75.45,219,39674
Machadka,city,Kerala,India,12.57,75.32,328,33987
Machipura,city,Kerala,India,12.48,75.07,82,59048
Madakai,city,Kerala,India,12.31,75.12,98,79010
Madakai,city,Kerala,India,12.32,75.17,200,61248
Madakai,city,Kerala,India,12.36,75.24,830,57997
Madakkara,city,Kerala,India,11.96,75.31,3,21329
Madancher,city,Kerala,India,11.79,75.76,1108,68581
Madappalli,city,Kerala,India,11.66,75.83,830,113223
Madappathuru,city,Kerala,India,11.86,75.62,206,42722
Madavur,city,Kerala,India,11.35,75.88,249,18715
Madhuru,city,Kerala,India,12.54,75.01,127,80016
Madkekanda,city,Kerala,India,12.46,75.15,830,53044
Madur,city,Kerala,India,11.82,75.92,2509,38157
Maduru,city,Kerala,India,12.49,75.04,131,69768
Madwa,city,Kerala,India,12.62,74.93,19,33572
Madya,city,Kerala,India,12.62,74.93,19,33572
Mahe,city,Kerala,India,11.7,75.53,3,111978
Mahe,city,Kerala,India,11.75,75.54,62,166213
Mahe,city,Kerala,India,11.72,75.55,49,147466
Maiapparamba,city,Kerala,India,11.28,75.8,108,276222
Maire,city,Kerala,India,12.63,75.06,219,53521
Maiyanhana,city,Kerala,India,12.31,75.25,347,58757
Majibailu,city,Kerala,India,12.7,74.92,82,45351
Makarachal,city,Kerala,India,10.2,76.72,301,16464
Makkada,city,Kerala,India,11.33,75.79,62,171983
Makkada,city,Kerala,India,11.33,75.79,45,171983
Makreri,city,Kerala,India,11.85,75.48,95,35068
Mala,city,Kerala,India,10.25,76.27,68,93122
Malabar,city,Kerala,India,9.95,76.25,9,109027
Maladka,city,Kerala,India,12.44,75.07,232,52669
Malakari,city,Kerala,India,11.78,75.84,2509,43387
Malappattam,city,Kerala,India,12.01,75.5,150,71796
Malappuram,city,Kerala,India,11.04,76.08,108,155474
Malapuram,city,Kerala,India,11.45,75.96,193,7126
Malartara,city,Kerala,India,12.27,75.22,173,58796
Malaru,city,Kerala,India,12.76,75.01,177,58130
Malayala,city,Kerala,India,12.54,75.21,830,51543
Malayamma,city,Kerala,India,11.33,75.94,206,7869
Malayamma,city,Kerala,India,11.33,75.95,209,6175
Malayattur,city,Kerala,India,10.2,76.53,131,35971
Malayatur,city,Kerala,India,10.2,76.53,131,35971
Malenki,city,Kerala,India,12.58,75.18,413,50895
Malla,city,Kerala,India,12.52,75.1,239,54663
Mallacheri,city,Kerala,India,9.25,76.84,124,63790
Mallampare,city,Kerala,India,12.51,75.23,830,52427
Mallankadap,city,Kerala,India,12.51,75.18,262,53044
Mallapalli,city,Kerala,India,9.45,76.71,59,120300
Mallappulasseri,city,Kerala,India,9.34,76.77,328,42954
Malothu,city,Kerala,India,12.38,75.32,830,58746
Malothu,city,Kerala,India,12.38,75.34,360,54372
Malott,city,Kerala,India,11.94,75.41,22,44776
Malpacheri,city,Kerala,India,12.31,75.18,259,58444
Malpacheri,city,Kerala,India,12.25,75.18,95,58814
Malur,city,Kerala,India,11.89,75.62,337,49607
Mamba,city,Kerala,India,11.9,75.49,160,45305
Mambaram,city,Kerala,India,11.87,75.6,193,52528
Mamyangsi,city,Kerala,India,12.44,75.1,275,53044
Manakadu,city,Kerala,India,12.54,75.2,830,51826
Manakayi,city,Kerala,India,11.89,75.55,164,58472
Manakkattupuram,city,Kerala,India,11.33,75.99,157,6175
Manakkod,city,Kerala,India,11.26,75.92,59,56802
Manalamkunnu,city,Kerala,India,10.66,75.98,22,64490
Manalipouzha,city,Kerala,India,10.99,75.93,16,180219
Manantavadi,city,Kerala,India,11.8,76.01,2509,37898
Mananthavady,city,Kerala,India,11.8,76.01,2509,37898
Manantheri,city,Kerala,India,11.84,75.61,249,49869
Manassheri,city,Kerala,India,11.31,75.97,239,18879
Manassheri,city,Kerala,India,11.3,75.98,127,31886
Manatanna,city,Kerala,India,11.89,75.73,282,40975
Manatanna,city,Kerala,India,11.91,75.76,311,40975
Manattala,city,Kerala,India,10.58,76.02,19,112164
Mandakamula,city,Kerala,India,11.82,75.97,2509,37896
Mandalur,city,Kerala,India,11.83,75.49,22,47342
Mandebettu,city,Kerala,India,12.54,75.24,830,50017
Mangad,city,Kerala,India,11.41,75.71,3,81931
Mangad,city,Kerala,India,12.46,75.04,157,54649
Mangad,city,Kerala,India,11.42,75.89,387,33064
Mangaladi,city,Kerala,India,11.79,75.99,2509,37910
Mangalam,city,Kerala,India,10.85,75.92,6,117385
Mangalam,city,Kerala,India,10.85,75.92,3,136584
Mangalapuram,city,Kerala,India,8.62,76.85,114,116776
Mangalapadi,city,Kerala,India,12.67,74.91,13,37695
Mangalassheri,city,Kerala,India,11.74,75.92,2585,38933
Mangalati,city,Kerala,India,11.81,75.98,2509,37892
Manganam,city,Kerala,India,9.58,76.55,13,207314
Mangattidam,city,Kerala,India,11.85,75.55,137,70571
Mangattiri,city,Kerala,India,10.89,75.92,16,173617
Mangattur,city,Kerala,India,10.81,75.99,16,232757
Mangod,city,Kerala,India,10.88,76.34,226,101342
Manimala,city,Kerala,India,9.48,76.75,154,87115
Manipadi,city,Kerala,India,12.69,75,380,53768
Manipuram,city,Kerala,India,11.37,75.93,170,6109
Maniyara,city,Kerala,India,12.12,75.28,59,60708
Maniyoor,city,Kerala,India,11.95,75.45,141,64538
Maniyur,city,Kerala,India,11.94,75.47,226,67141
Maniyur,city,Kerala,India,11.95,75.45,141,64538
Maniyur,city,Kerala,India,11.55,75.65,39,120341
Manjanadaka,city,Kerala,India,12.46,75.38,830,36183
Manjaparedattu,city,Kerala,India,12.55,75.21,229,51272
Manjeri,city,Kerala,India,11.12,76.12,124,93482
Manjeshwar,city,Kerala,India,12.71,74.89,13,32507
Manjeshwara,city,Kerala,India,12.71,74.89,13,32507
Manjeswaram,city,Kerala,India,12.71,74.89,13,32507
Manjigot,city,Kerala,India,12.48,75.04,236,72247
Manjeshvar,city,Kerala,India,12.71,74.89,13,32507
Manjeshvar,city,Kerala,India,12.73,74.89,6,37048
Mankara,city,Kerala,India,10.78,76.5,209,64809
Mankara,city,Kerala,India,12.14,75.43,190,60810
Mankarai,city,Kerala,India,10.78,76.5,209,64809
Mannamangalam,city,Kerala,India,11.46,75.67,6,83973
Mannampoyil,city,Kerala,India,11.43,75.82,206,65720
Mannankavu,city,Kerala,India,11.48,75.74,49,127507
Mannat,city,Kerala,India,11.46,75.75,39,126179
Mannayat,city,Kerala,India,11.77,75.48,3,60984
Mannur,city,Kerala,India,11.64,75.78,164,114691
Mannur,city,Kerala,India,11.98,75.56,98,72432
Mannya,city,Kerala,India,12.48,75.07,305,60283
Mannarakkat,city,Kerala,India,10.99,76.46,242,78954
Mantharattur,city,Kerala,India,11.61,75.68,255,115093
Mantharattur,city,Kerala,India,11.57,75.65,124,125487
Mapilangad,city,Kerala,India,12.42,75.06,104,47906
Mappram,city,Kerala,India,11.26,75.97,75,58258
Maradmule,city,Kerala,India,12.52,75.13,830,53044
Maraiyoor,city,Kerala,India,10.28,77.15,3415,17577
Maraiyur,city,Kerala,India,10.28,77.15,3415,17577
Maralur,city,Kerala,India,11.47,75.67,9,99044
Marancheri,city,Kerala,India,10.74,75.97,6,144808
Marancheri,city,Kerala,India,10.74,75.97,6,165519
Maravancheri,city,Kerala,India,10.83,75.99,13,220163
Maravantha,city,Kerala,India,10.82,75.93,3,172666
Marayoor,city,Kerala,India,10.28,77.15,3415,17577
Marayur,city,Kerala,India,10.28,77.15,3415,17577
Maridalam,city,Kerala,India,12.45,75.19,396,53062
Mariyat,city,Kerala,India,12.18,75.17,62,55513
Maruteri,city,Kerala,India,11.54,75.78,167,119242
Maruthad,city,Kerala,India,11.37,75.81,180,53869
Maruthayi,city,Kerala,India,11.95,75.57,190,74603
Maruthonkara,city,Kerala,India,11.64,75.78,193,114818
Mathamangalam,city,Kerala,India,12.13,75.31,104,58124
Mathodam,city,Kerala,India,11.93,75.41,19,44685
Matkeri,city,Kerala,India,12.6,75.21,830,45853
Mattamal,city,Kerala,India,12.12,75.17,39,64138
Mattanur,city,Kerala,India,10.83,75.92,3,147379
Mattanur,city,Kerala,India,11.93,75.57,249,71819
Mattapad,city,Kerala,India,11.32,75.9,127,32675
Mattancheri,city,Kerala,India,9.94,76.25,9,105170
Mavalikara,city,Kerala,India,9.26,76.56,52,182288
Mavatt,city,Kerala,India,11.49,75.71,190,127173
Maviccheri,city,Kerala,India,12.08,75.38,318,61368
Mavitayi,city,Kerala,India,11.84,75.48,62,37908
Mavur,city,Kerala,India,11.27,75.96,68,50967
Mayikan,city,Kerala,India,12.43,75.06,164,51028
Mayilancheri,city,Kerala,India,12.16,75.32,200,62267
Mayilati,city,Kerala,India,11.8,75.96,2509,37898
Mayyannur,city,Kerala,India,11.61,75.61,193,141391
Mayyazhi,city,Kerala,India,11.7,75.53,3,111978
Mayyil,city,Kerala,India,11.98,75.44,49,71059
Mazhur,city,Kerala,India,12.07,75.41,170,69496
Megoth,city,Kerala,India,12.37,75.1,121,72903
Melattur,city,Kerala,India,11.06,76.28,187,96236
Melatur,city,Kerala,India,11.06,76.28,187,96236
Melpadapu,city,Kerala,India,12.51,75.23,830,53048
Melparambu,city,Kerala,India,12.47,75.01,118,54514
Memunda,city,Kerala,India,11.6,75.6,127,119864
Menachore,city,Kerala,India,12.09,75.33,98,46043
Menappuram,city,Kerala,India,11.83,75.98,2509,37889
Menapram,city,Kerala,India,11.73,75.57,98,149846
Menapram,city,Kerala,India,11.72,75.58,62,144356
Mennanyan,city,Kerala,India,11.55,75.78,203,119242
Mennanyam,city,Kerala,India,11.56,75.76,239,119240
Mepat,city,Kerala,India,12.43,75.11,331,53054
Meppayyur,city,Kerala,India,11.54,75.74,249,118848
Meppadi,city,Kerala,India,11.57,76.15,2601,45681
Meruvambayi,city,Kerala,India,11.87,75.57,183,59224
Methala,city,Kerala,India,10.22,76.2,29,152062
Mettadi,city,Kerala,India,11.95,75.55,187,75944
Minadattur,city,Kerala,India,10.94,75.91,6,165914
Mincat,city,Kerala,India,12.38,75.12,249,65687
Minja,city,Kerala,India,12.71,74.96,78,56392
Minmuttikkal,city,Kerala,India,11.7,75.81,905,92683
Minnagol,city,Kerala,India,12.49,75.14,213,53044
Minnangolu,city,Kerala,India,12.43,75.12,259,53047
Mitalot,city,Kerala,India,11.89,75.48,154,45305
Mittale,city,Kerala,India,11.87,75.95,2890,38327
Miyala,city,Kerala,India,12.59,75.26,830,39699
Miyapadavu,city,Kerala,India,12.71,74.96,68,56368
Mocheri,city,Kerala,India,11.82,75.47,6,37401
Modakkallur,city,Kerala,India,11.43,75.78,196,92625
Moduda,city,Kerala,India,12.03,75.32,150,39820
Mogaru,city,Kerala,India,12.56,75.24,321,47649
Mogavur,city,Kerala,India,11.32,75.77,22,163997
Mogral,city,Kerala,India,12.57,74.96,13,43876
Moikoch,city,Kerala,India,12.25,75.18,170,58822
Mokeri,city,Kerala,India,11.68,75.75,229,118486
Mokeri,city,Kerala,India,11.78,75.57,203,144984
Molehannur,city,Kerala,India,12.37,75.16,370,57539
Moraya,city,Kerala,India,11.99,75.34,3,33642
Morikkara,city,Kerala,India,11.32,75.79,45,211748
Motal,city,Kerala,India,11.82,75.86,2509,38427
Motlankote,city,Kerala,India,12.45,75.11,406,53044
Mouvan,city,Kerala,India,12.33,75.33,830,58784
Moyilottara,city,Kerala,India,11.65,75.77,196,112997
Muchankulli,city,Kerala,India,12.52,75.26,830,49158
Muchiri,city,Kerala,India,10.22,76.2,29,152062
Muchiripattinam,city,Kerala,India,10.22,76.2,29,152062
Muchukunnu,city,Kerala,India,11.49,75.66,49,105524
Mudadi,city,Kerala,India,11.48,75.66,22,95350
Mudakkallur,city,Kerala,India,11.41,75.76,180,72379
Mudambailu,city,Kerala,India,12.71,74.94,180,55014
Mugu,city,Kerala,India,12.62,75.04,219,53081
Mukkad,city,Kerala,India,8.9,76.55,3,277126
Mukkada,city,Kerala,India,12.51,75.11,406,53044
Mukkie,city,Kerala,India,11.79,75.84,2509,40145
Mukkunnu,city,Kerala,India,12.06,75.35,255,50635
Mulapadi,city,Kerala,India,11.91,75.98,2913,33527
Mulappilangal,city,Kerala,India,11.8,75.45,3,25700
Mulappilangad,city,Kerala,India,11.8,75.45,3,25700
Mulinja,city,Kerala,India,12.68,74.91,22,39586
Muliyar,city,Kerala,India,12.51,75.11,393,53044
Muliyar,city,Kerala,India,12.52,75.12,328,53044
Mullagode,city,Kerala,India,12.48,75.17,830,53044
Mulleri,city,Kerala,India,12.54,75.16,830,53044
Mullokkodi,city,Kerala,India,12,75.42,59,70460
Mullur,city,Kerala,India,12.02,75.32,22,34669
Muluppilagadu,city,Kerala,India,11.8,75.45,3,25700
Mulur,city,Kerala,India,11.8,75.47,3,42738
Mundakadu,city,Kerala,India,12.49,75.12,249,53044
Mundakai,city,Kerala,India,12.49,75.08,127,57854
Mundakkal,city,Kerala,India,11.28,75.89,167,106662
Mundakkara,city,Kerala,India,11.45,75.85,150,88606
Mundakayam,city,Kerala,India,9.54,76.88,259,50296
Mundapara,city,Kerala,India,12.15,75.33,367,59049
Mundayad,city,Kerala,India,11.88,75.41,114,32556
Mundayatt,city,Kerala,India,11.83,75.94,2509,38037
Mundekod,city,Kerala,India,12.6,75.13,223,52129
Mundemad,city,Kerala,India,12.24,75.14,78,48628
Munderi,city,Kerala,India,11.93,75.45,118,55636
Munderi,city,Kerala,India,12.03,75.41,111,70833
Mundote,city,Kerala,India,12.32,75.16,157,65128
Mundott,city,Kerala,India,11.45,75.75,49,120818
Mundur,city,Kerala,India,10.84,76.58,413,59581
Munnad,city,Kerala,India,12.46,75.19,830,53060
Munnamkai,city,Kerala,India,11.68,75.78,232,111261
Munnar,city,Kerala,India,10.09,77.06,5029,20757
Munnit,city,Kerala,India,12.35,75.11,147,80112
Munnur,city,Kerala,India,11.28,75.98,101,38367
Muriyadu,city,Kerala,India,11.82,75.59,226,76433
Muringodi,city,Kerala,India,11.91,75.73,291,40975
Muthalamada,city,Kerala,India,10.62,76.78,830,44748
Muthiyanga,city,Kerala,India,11.81,75.6,167,85447
Muthukutti,city,Kerala,India,11.87,75.47,164,36793
Muthureri,city,Kerala,India,11.79,75.95,2509,37898
Muthuvad,city,Kerala,India,11.34,75.81,131,116093
Muthuvadattur,city,Kerala,India,11.67,75.63,200,139092
Muthuvannacha,city,Kerala,India,11.61,75.76,134,116651
Muthur,city,Kerala,India,10.9,75.94,42,201658
Mutnadi,city,Kerala,India,12.45,75.08,170,53000
Muttam,city,Kerala,India,9.83,76.75,830,44857
Muttam,city,Kerala,India,9.98,76.38,45,89531
Muttanur,city,Kerala,India,11.94,75.52,252,69567
Muttatti,city,Kerala,India,12.12,75.26,134,77524
Muttatodi,city,Kerala,India,12.53,75.03,137,78984
Muttayatt,city,Kerala,India,11.34,75.96,213,6703
Muttoli,city,Kerala,India,11.32,75.81,91,192203
Muttungal,city,Kerala,India,11.62,75.59,62,116764
Muttuntale,city,Kerala,India,12.35,75.07,39,51374
Muttancheri,city,Kerala,India,11.33,75.87,164,75088
Muvattupula,city,Kerala,India,9.98,76.58,65,95051
Muvatupusha,city,Kerala,India,9.98,76.58,65,95051
Muvatupuzha,city,Kerala,India,9.98,76.58,65,95051
Muvvangara,city,Kerala,India,10.85,75.99,13,197668
Muyippett,city,Kerala,India,11.56,75.69,236,116061
Muyipram,city,Kerala,India,11.64,75.61,160,147035
Muyirikkodu,city,Kerala,India,10.22,76.2,29,152062
Muyyam,city,Kerala,India,12.02,75.39,173,67051
Muzhakkunnu,city,Kerala,India,11.94,75.71,830,45041
Muzhakkunnu,city,Kerala,India,11.93,75.69,830,46309
Muzhappilangad,city,Kerala,India,11.8,75.45,3,25700
Muzhikkamittal,city,Kerala,India,11.47,75.74,42,129915
Muzhikkara,city,Kerala,India,11.75,75.54,62,166213
Muziris,city,Kerala,India,10.22,76.2,29,152062
Nachipadapu,city,Kerala,India,12.51,75.23,830,52932
Nadakkavu,city,Kerala,India,11.27,75.78,22,214142
Nadibail,city,Kerala,India,12.76,74.94,219,69026
Nadukkil,city,Kerala,India,11.35,75.97,196,6109
Naduvallur,city,Kerala,India,11.39,75.82,242,30331
Naduvannur,city,Kerala,India,11.48,75.78,282,118360
Naduvattur,city,Kerala,India,11.48,75.7,108,120223
Naduvil,city,Kerala,India,12.16,75.48,830,65302
Naderi,city,Kerala,India,11.46,75.72,39,120069
Naderi,city,Kerala,India,11.47,75.72,45,128331
Nagaram,city,Kerala,India,11.26,75.78,26,196782
Nagarkate,city,Kerala,India,12.35,75.1,111,79143
Naikap,city,Kerala,India,12.59,74.98,830,52071
Nailekandam,city,Kerala,India,12.23,75.19,187,58839
Nakur,city,Kerala,India,12.61,75.19,830,45178
Nalamkeri,city,Kerala,India,11.96,75.57,232,75344
Nallaparamba,city,Kerala,India,10.91,75.97,82,194925
Nallepilli,city,Kerala,India,10.73,76.78,830,52043
Nalluru,city,Kerala,India,11.94,75.7,830,47237
Nambratt,city,Kerala,India,11.47,75.7,55,119913
Naniccheri,city,Kerala,India,12.01,75.4,3,70790
Naniyur,city,Kerala,India,11.98,75.41,42,61343
Naniyurnambram,city,Kerala,India,11.99,75.41,45,63916
Nanminda,city,Kerala,India,11.42,75.82,196,57577
Nannambra,city,Kerala,India,10.99,75.91,13,159105
Nannambra,city,Kerala,India,11,75.91,16,170006
Narakal,city,Kerala,India,10.05,76.22,3,85671
Narala,city,Kerala,India,12.53,75.15,830,53044
Naramba,city,Kerala,India,12.25,75.39,830,63912
Narampadi,city,Kerala,India,12.56,75.12,364,53044
Narandigol,city,Kerala,India,12.53,75.18,242,53043
Narangote,city,Kerala,India,12.45,75.09,278,53044
Naratt,city,Kerala,India,11.44,75.75,91,112799
Narikkott,city,Kerala,India,12.05,75.33,55,46808
Narikkattiri,city,Kerala,India,11.66,75.68,275,153451
Narikole,city,Kerala,India,12.44,75.2,416,53224
Naripparamba,city,Kerala,India,10.81,75.97,3,224444
Narippatta,city,Kerala,India,11.71,75.72,830,137618
Narkalakadu,city,Kerala,India,12.32,75.33,830,59038
Natekal,city,Kerala,India,12.56,75.13,830,53044
Natur,city,Kerala,India,11.78,75.49,78,72434
Nayarkuzhi,city,Kerala,India,11.29,75.96,134,31639
Nediyanad,city,Kerala,India,11.38,75.88,830,10227
Nedumangad,city,Kerala,India,8.6,77,223,125395
Nedungottur,city,Kerala,India,11.29,75.79,65,263969
Neduvalfur,city,Kerala,India,11.97,75.55,88,73756
Neilaccheri,city,Kerala,India,11.66,75.59,45,117493
Neithallur,city,Kerala,India,10.8,75.97,3,210913
Nejikadu,city,Kerala,India,12.59,75.18,830,49728
Nekaraje,city,Kerala,India,12.55,75.1,406,53076
Nekrekadu,city,Kerala,India,12.62,75.15,301,49459
Nellaya,city,Kerala,India,10.4,76.3,131,71053
Nellayi,city,Kerala,India,10.4,76.3,131,71053
Nellikkod,city,Kerala,India,11.25,75.82,177,292506
Nellithare,city,Kerala,India,12.35,75.13,830,75721
Nelliyeri,city,Kerala,India,11.48,75.82,298,111784
Nellora,city,Kerala,India,11.65,75.72,209,125258
Nemmara,city,Kerala,India,10.59,76.6,830,76120
Nenmara,city,Kerala,India,10.59,76.6,830,76120
Neralakaje,city,Kerala,India,12.53,75.24,393,50904
Neralakeje,city,Kerala,India,12.52,75.23,393,52582
Nerampadi,city,Kerala,India,12.59,75.12,183,52840
Neriamangalam,city,Kerala,India,10.05,76.78,331,41445
Nerimangalam,city,Kerala,India,10.05,76.78,331,41445
Neriyamangalam,city,Kerala,India,10.05,76.78,331,41445
Nerodi,city,Kerala,India,12.5,75.21,311,53044
Nettanige,city,Kerala,India,12.61,75.18,370,46181
Nettinampalli,city,Kerala,India,10.18,76.5,62,51380
Nettra,city,Kerala,India,11.9,76,2860,35125
Neyattinkara,city,Kerala,India,8.4,77.09,85,212455
Neyyattinkara,city,Kerala,India,8.4,77.09,85,212455
Nidiyanga,city,Kerala,India,12.08,75.49,272,65304
Nidumbram,city,Kerala,India,11.74,75.55,68,166308
Niduvad,city,Kerala,India,11.93,75.39,16,38845
Niduvote,city,Kerala,India,12.5,75.07,98,61497
Niduvalur,city,Kerala,India,12.05,75.46,246,65903
Nilambur,city,Kerala,India,11.27,76.23,183,67497
Nilambur Taluk,city,Kerala,India,11.27,76.23,183,67497
Nilamel,city,Kerala,India,8.82,76.88,259,117824
Nileswaram,city,Kerala,India,12.33,75.1,101,76737
Nilott,city,Kerala,India,11.76,75.89,2509,37934
Nindakara,city,Kerala,India,8.93,76.53,0,231722
Niralott,city,Kerala,India,11.75,75.9,2509,37983
Niramaruthur,city,Kerala,India,10.92,75.9,3,145159
Niramaruthur,city,Kerala,India,10.92,75.9,3,145159
Nirmallur,city,Kerala,India,11.47,75.82,131,99414
Nittur,city,Kerala,India,11.65,75.72,206,121205
Nitukalam,city,Kerala,India,11.98,75.52,124,70439
Nitumpoyil,city,Kerala,India,11.5,75.71,190,126033
Nocchad,city,Kerala,India,11.52,75.77,131,119244
Nocchad,city,Kerala,India,11.53,75.75,173,119243
North Paravur,city,Kerala,India,10.15,76.22,9,151634
Norenkulam,city,Kerala,India,11.52,75.8,377,119242
Nuchipadpu,city,Kerala,India,12.55,75.15,830,53044
Nunneri,city,Kerala,India,11.93,75.42,22,52227
Nunni,city,Kerala,India,12.31,75.13,193,76731
Nadkau,city,Kerala,India,12.16,75.18,39,65431
Nadapuram,city,Kerala,India,11.68,75.65,275,158624
Narad,city,Kerala,India,11.95,75.38,9,39613
Nelot Pare,city,Kerala,India,12.14,75.25,124,75827
Nileshwar,city,Kerala,India,12.26,75.14,108,57931
Nileshwar,city,Kerala,India,12.26,75.15,262,59577
Ochathidle,city,Kerala,India,12.24,75.19,180,58831
Odotadka,city,Kerala,India,12.45,75.12,410,53044
Olakara,city,Kerala,India,11.1,75.92,75,142343
Olavilam,city,Kerala,India,11.71,75.57,36,132809
Olavilam,city,Kerala,India,11.71,75.56,22,136203
Ollur,city,Kerala,India,10.47,76.23,108,162940
Ollur,city,Kerala,India,11.43,75.74,13,109950
Olukara,city,Kerala,India,11.1,75.92,75,142343
Omacchapuzha,city,Kerala,India,10.98,75.94,45,184214
Omachchapuzha,city,Kerala,India,10.98,75.94,45,184214
Omachchapuzha,city,Kerala,India,10.98,75.94,26,186998
Omassheri,city,Kerala,India,11.36,75.96,252,6109
Onchiyam,city,Kerala,India,11.65,75.59,49,117493
Onchiyam,city,Kerala,India,11.65,75.59,52,117493
Onnal,city,Kerala,India,11.55,75.83,246,119238
Orikara,city,Kerala,India,11.82,75.46,6,31623
Otemule,city,Kerala,India,12.53,75.23,830,51903
Ottapalam,city,Kerala,India,10.77,76.38,173,175629
Ottappalam,city,Kerala,India,10.77,76.38,173,175629
Oyulat,city,Kerala,India,12.22,75.23,147,59517
Ozhur,city,Kerala,India,10.96,75.91,9,171768
Ozhur,city,Kerala,India,10.97,75.91,9,183673
Pacchattiri,city,Kerala,India,10.89,75.9,3,143476
Pacchattiri,city,Kerala,India,10.9,75.9,3,131035
Padagiri,city,Kerala,India,10.48,76.7,2588,44887
Padangote,city,Kerala,India,12.42,75.2,830,53784
Padappengad,city,Kerala,India,12.12,75.44,259,61180
Padiatadka,city,Kerala,India,12.56,75.2,255,51045
Padinnarattara,city,Kerala,India,11.67,75.95,2509,45796
Padinnatummuri,city,Kerala,India,11.32,75.8,55,200212
Padiyam,city,Kerala,India,10.87,75.9,3,114453
Padiyil,city,Kerala,India,12,75.33,3,37135
Padne,city,Kerala,India,12.18,75.14,65,41218
Padne Kadparam,city,Kerala,India,12.16,75.14,22,32597
Pado Thurti,city,Kerala,India,12.24,75.16,88,57047
Padre,city,Kerala,India,12.63,75.13,416,51342
Pagara,city,Kerala,India,10.96,75.92,16,194864
Paika,city,Kerala,India,12.54,75.1,406,53869
Pairupalla,city,Kerala,India,12.5,75.15,167,53044
Paivalike,city,Kerala,India,12.69,74.98,246,55164
Paivalike,city,Kerala,India,12.73,75,206,55018
Pakera,city,Kerala,India,12.43,75.03,95,36786
Pakranthalam,city,Kerala,India,11.73,75.81,2509,81328
Pala,city,Kerala,India,11.93,75.72,232,43775
Pala,city,Kerala,India,9.71,76.73,144,83375
Palachhura,city,Kerala,India,11.85,75.9,2509,38897
Palakkad,city,Kerala,India,10.77,76.66,305,149611
Palakundi,city,Kerala,India,11.49,75.91,1053,74236
Palali,city,Kerala,India,12.51,75.08,347,59488
Palamattam,city,Kerala,India,10.1,76.75,830,31795
Palangod,city,Kerala,India,12.57,75.25,249,46349
Palar,city,Kerala,India,12.51,75.28,830,45908
Palarambu,city,Kerala,India,11.82,75.84,2509,38599
Palatt,city,Kerala,India,11.34,75.83,173,96086
Palattayi,city,Kerala,India,11.74,75.6,114,121371
Palayad,city,Kerala,India,11.47,75.8,95,106295
Palayam,city,Kerala,India,8.48,76.92,3,98476
Palayannur,city,Kerala,India,10.68,76.42,216,104285
Palayat,city,Kerala,India,11.78,75.48,3,60852
Palazhi,city,Kerala,India,11.25,75.84,190,255895
Paleri,city,Kerala,India,11.63,75.77,141,115317
Paleri,city,Kerala,India,11.88,75.49,141,40894
Pallanje,city,Kerala,India,12.51,75.2,830,53044
Pallappuram,city,Kerala,India,10.77,75.93,3,120344
Pallara,city,Kerala,India,10.88,75.97,55,190233
Pallatadka,city,Kerala,India,12.62,75.08,285,53223
Palleri,city,Kerala,India,11.94,75.39,16,44268
Pallikere,city,Kerala,India,12.41,75.04,108,32448
Pallikere,city,Kerala,India,12.01,75.27,32,23195
Pallikkal,city,Kerala,India,11.77,75.98,2509,37924
Pallikkott,city,Kerala,India,11.33,75.89,127,46861
Pallikochi,city,Kerala,India,12.54,75.21,830,52072
Pallikunnu,city,Kerala,India,11.89,75.36,13,22901
Pallippuram,city,Kerala,India,10.82,75.94,6,206426
Pallippuram,city,Kerala,India,10.83,75.95,6,196723
Pallippuram,city,Kerala,India,10.17,76.18,3,89462
Pallipram,city,Kerala,India,11.71,75.55,13,118700
Pallipram,city,Kerala,India,11.42,75.91,213,25990
Pallipuram,city,Kerala,India,10.17,76.18,3,89462
Pallithayavayal,city,Kerala,India,11.76,75.84,2509,45556
Palliyam,city,Kerala,India,11.93,75.63,830,56209
Palloth,city,Kerala,India,12.26,75.21,295,58804
Pallur,city,Kerala,India,11.72,75.55,49,143918
Pallalur,city,Kerala,India,11.34,75.85,223,83283
Paloa,city,Kerala,India,11.4,75.98,252,6109
Palod,city,Kerala,India,8.71,77.03,242,56620
Paloli,city,Kerala,India,11.48,75.8,291,111946
Palur,city,Kerala,India,11.27,75.98,85,48949
Pambadi,city,Kerala,India,9.57,76.67,298,86540
Pambirutti,city,Kerala,India,11.96,75.38,13,41142
Pampadi,city,Kerala,India,9.57,76.67,298,86540
Pampady,city,Kerala,India,9.57,76.67,298,86540
Panakkod,city,Kerala,India,11.4,75.91,187,11830
Panakkad,city,Kerala,India,12.03,75.4,196,66408
Panakola,city,Kerala,India,12.49,75.18,830,53044
Panalat,city,Kerala,India,11.97,75.54,121,73756
Panamaram,city,Kerala,India,11.73,76.1,2509,46340
Panambukad,city,Kerala,India,10,76.27,13,132680
Panambad,city,Kerala,India,10.75,75.96,3,163959
Panampatta,city,Kerala,India,11.89,75.64,229,43268
Panangad,city,Kerala,India,11.46,75.83,134,99898
Panangad,city,Kerala,India,11.47,75.83,147,107315
Panangattur,city,Kerala,India,10.99,75.89,9,132184
Panangattur,city,Kerala,India,12.08,75.36,75,54656
Panangad,city,Kerala,India,11.57,75.78,180,119242
Pananthadi,city,Kerala,India,12.44,75.31,1069,55584
Panatur,city,Kerala,India,12.45,75.36,997,44893
Panayi,city,Kerala,India,11.44,75.81,213,78293
Pandakkal,city,Kerala,India,11.75,75.55,108,173676
Pandi,city,Kerala,India,12.47,75.12,830,53044
Pandi Kadavu,city,Kerala,India,11.79,76,2509,37903
Pandibalu,city,Kerala,India,12.53,75.21,321,52717
Pandikkott,city,Kerala,India,11.56,75.78,187,119242
Pandiyal,city,Kerala,India,12.43,75.06,167,49530
Pandiyal Kote,city,Kerala,India,12.43,75.05,154,43120
Pandiyal,city,Kerala,India,12.42,75.06,167,47906
Pandavur,city,Kerala,India,10.92,75.98,131,189528
Panjal,city,Kerala,India,10.69,76.31,269,107862
Panmana,city,Kerala,India,9.02,76.52,6,219988
Pannadka,city,Kerala,India,12.49,75.09,278,56267
Pannangote,city,Kerala,India,12.34,75.16,344,61507
Pannikkottur,city,Kerala,India,11.4,75.87,331,22183
Pannikkottur,city,Kerala,India,11.4,75.87,331,22183
Pannikunnu,city,Kerala,India,12.39,75.12,173,57487
Pannippattil,city,Kerala,India,11.73,75.87,3579,52422
Panniyannur,city,Kerala,India,11.75,75.58,147,140974
Panniyanur,city,Kerala,India,11.74,75.57,124,153994
Panniyur,city,Kerala,India,12.07,75.41,147,69496
Panothu,city,Kerala,India,11.78,75.79,1669,60034
Pantalayini,city,Kerala,India,11.45,75.69,6,96693
Pantalayini,city,Kerala,India,11.44,75.71,6,96803
Pantekai,city,Kerala,India,12.23,75.12,3,32559
Paparaugardi,city,Kerala,India,11.05,75.86,3,109830
Pappinissheri,city,Kerala,India,11.96,75.34,3,30501
Parad,city,Kerala,India,12.01,75.38,91,58769
Parakkadavu,city,Kerala,India,11.74,75.65,177,121328
Paramantma,city,Kerala,India,11.81,75.88,2509,38179
Parambatt Kavu,city,Kerala,India,11.36,75.92,203,6109
Parambikolam,city,Kerala,India,10.39,76.78,1715,47537
Parambikulam,city,Kerala,India,10.39,76.78,1715,47537
Parambil,city,Kerala,India,11.65,75.65,259,142578
Parambil,city,Kerala,India,11.3,75.83,82,216080
Parambu,city,Kerala,India,12.47,75.07,249,56219
Parannur,city,Kerala,India,11.36,75.86,311,33055
Parannur,city,Kerala,India,11.37,75.85,282,15140
Parapalli,city,Kerala,India,12.38,75.14,265,60126
Parappa,city,Kerala,India,12.5,75.2,830,53044
Parappa,city,Kerala,India,12.57,75.27,285,40790
Parappanangadi,city,Kerala,India,11.05,75.86,3,109830
Parappuniraku,city,Kerala,India,11.61,75.83,229,118172
Parapuram,city,Kerala,India,11.81,75.48,6,49371
Parassheri,city,Kerala,India,10.87,75.93,29,181002
Parattipalli,city,Kerala,India,8.57,77.11,262,69129
Paravannangadi,city,Kerala,India,10.89,75.9,3,131035
Paravannur,city,Kerala,India,10.93,75.99,141,182707
Paravar,city,Kerala,India,8.78,76.7,32,114977
Paravoor,city,Kerala,India,8.78,76.7,32,114977
Paravur,city,Kerala,India,8.78,76.7,32,114977
Parayambala,city,Kerala,India,12.45,75.21,830,53301
Parayancheri,city,Kerala,India,11.25,75.8,78,246411
Pare,city,Kerala,India,12.69,75.05,328,56206
Paringonna,city,Kerala,India,12.03,75.48,144,68638
Parinkila,city,Kerala,India,12.65,74.92,65,36452
Parippayi,city,Kerala,India,12.05,75.5,65,65304
Pariyapuram,city,Kerala,India,11,75.89,13,134198
Pariyaram,city,Kerala,India,12.07,75.33,164,45900
Pariyaram,city,Kerala,India,12.06,75.32,98,41688
Pariyapuram,city,Kerala,India,10.89,75.91,3,143476
Pariyapuram,city,Kerala,India,11.02,75.87,6,116129
Parne,city,Kerala,India,12.59,74.99,272,58132
Parpe,city,Kerala,India,12.37,75.25,830,58176
Parpekat,city,Kerala,India,12.42,75.13,259,53064
Partakochi,city,Kerala,India,12.54,75.17,328,53044
Parur,city,Kerala,India,10.15,76.22,9,151634
Paruvamba,city,Kerala,India,12.18,75.34,416,65218
Pathanamthitta,city,Kerala,India,9.27,76.78,62,70932
Pathentheru,city,Kerala,India,11.62,75.62,255,149626
Pathirapalli Ambalam,city,Kerala,India,10.82,75.99,16,227871
Patikachalu,city,Kerala,India,11.94,75.64,213,56171
Patiriyat,city,Kerala,India,11.85,75.51,62,57240
Pattanamtitta,city,Kerala,India,9.27,76.78,62,70932
Pattanapuram,city,Kerala,India,9.1,76.87,173,78917
Pattanur,city,Kerala,India,11.98,75.53,209,70855
Pattanur,city,Kerala,India,11.96,75.53,236,73119
Pattayam,city,Kerala,India,11.96,75.41,32,53233
Pattiayal,city,Kerala,India,12.46,75.09,377,53433
Pattikad,city,Kerala,India,10.55,76.33,177,53525
Pattikkad,city,Kerala,India,10.55,76.33,177,53525
Pattikod,city,Kerala,India,10.55,76.33,177,53525
Pattiyattutodu,city,Kerala,India,11.69,75.79,305,107892
Pattiyurgramam,city,Kerala,India,9.17,76.5,29,225060
Pattuvam,city,Kerala,India,12.02,75.34,219,46053
Pattuvam,city,Kerala,India,11.99,75.56,111,70994
Pattyam,city,Kerala,India,11.79,75.56,108,127317
Pattambi,city,Kerala,India,10.8,76.18,111,119274
Paturu,city,Kerala,India,12.77,74.98,206,57843
Patuvilayi,city,Kerala,India,11.87,75.52,95,50421
Paunyanur,city,Kerala,India,11.76,75.55,85,176818
Pavad,city,Kerala,India,11.39,75.92,180,7263
Paval,city,Kerala,India,12.3,75.35,830,60410
Pavandur,city,Kerala,India,11.38,75.8,200,38114
Pavannur,city,Kerala,India,11.99,75.49,82,75478
Paverikkara,city,Kerala,India,10.87,75.94,32,183772
Pavuru,city,Kerala,India,12.75,74.92,144,62030
Payimbalassheri,city,Kerala,India,11.33,75.88,127,46861
Payimbalasslieri,city,Kerala,India,11.34,75.88,134,22658
Payimbra,city,Kerala,India,11.32,75.86,144,107336
Payinganikote,city,Kerala,India,11.59,75.86,311,119240
Payingottupuram,city,Kerala,India,11.27,75.87,278,162302
Payingattiri,city,Kerala,India,11.77,75.99,2509,37934
Payithott,city,Kerala,India,11.57,75.77,193,119215
Payyannur,city,Kerala,India,12.09,75.2,39,72915
Payyannur,city,Kerala,India,12.09,75.2,39,75558
Payyanur,city,Kerala,India,12.09,75.2,39,75558
Payyare,city,Kerala,India,12.26,75.25,226,59321
Payyoli,city,Kerala,India,11.53,75.66,75,115683
Pazhanjeri,city,Kerala,India,11.97,75.68,167,51240
Pazhanni,city,Kerala,India,10.73,75.95,3,120745
Pazhasshi,city,Kerala,India,11.9,75.59,249,63101
Pazhasshi,city,Kerala,India,11.91,75.57,252,65980
Pazhayannur,city,Kerala,India,10.68,76.42,216,104285
Pedi,city,Kerala,India,12.53,75.06,239,68864
Peermade,city,Kerala,India,9.57,76.98,3349,19519
Peltaru,city,Kerala,India,12.34,75.26,830,58746
Peradiyur,city,Kerala,India,10.89,76.19,173,136736
Peradka,city,Kerala,India,12.54,75.17,830,53043
Peraje,city,Kerala,India,12.57,75.28,354,40321
Peralam,city,Kerala,India,12.19,75.22,150,61707
Peralam,city,Kerala,India,12.17,75.21,75,71532
Perambale,city,Kerala,India,12.48,75.03,242,68272
Perambatte,city,Kerala,India,12.28,75.28,223,59918
Perampuzha,city,Kerala,India,12.11,75.22,32,80573
Perathodi,city,Kerala,India,12.43,75.33,1728,50844
Peravaccheri,city,Kerala,India,11.5,75.78,413,119263
Peravur,city,Kerala,India,11.9,75.56,216,65885
Perdal,city,Kerala,India,12.6,75.07,252,53044
Perdala,city,Kerala,India,12.6,75.07,252,53044
Perhichola,city,Kerala,India,11.78,75.97,2509,37920
Periadka,city,Kerala,India,12.55,75.23,285,50339
Periath,city,Kerala,India,12.43,75.13,278,53044
Perichagam,city,Kerala,India,10.74,75.96,6,133947
Perili,city,Kerala,India,11.37,75.98,370,6109
Perimanna,city,Kerala,India,11.99,75.58,104,68850
Perincheri,city,Kerala,India,10.97,75.94,26,193829
Peringalam,city,Kerala,India,11.72,75.6,91,133202
Peringalam,city,Kerala,India,11.74,75.59,98,133444
Peringalayi,city,Kerala,India,11.88,75.43,226,34452
Peringana,city,Kerala,India,12.46,75.2,830,53083
Peringolam,city,Kerala,India,11.28,75.88,216,117629
Peringom,city,Kerala,India,12.25,75.3,308,62013
Peringom,city,Kerala,India,12.21,75.33,830,65168
Peringom,city,Kerala,India,12.04,75.31,13,34356
Perintalmanna,city,Kerala,India,10.98,76.23,226,213808
Perintatta,city,Kerala,India,12.18,75.3,367,64326
Perinthallur,city,Kerala,India,10.84,75.95,6,196723
Perinthileri,city,Kerala,India,12.02,75.45,104,73706
Perintirulti,city,Kerala,India,11.33,75.75,9,113904
Perintirutti,city,Kerala,India,10.84,75.92,3,119341
Perinad,city,Kerala,India,9.12,76.48,22,115478
Periya,city,Kerala,India,11.83,75.85,2555,38960
Periyal,city,Kerala,India,12.38,75.13,321,62591
Periyana,city,Kerala,India,12.41,75.13,403,53171
Periyanhana,city,Kerala,India,12.31,75.26,285,58786
Periyankotalu,city,Kerala,India,12.26,75.38,387,62688
Periyaram,city,Kerala,India,11.93,75.6,236,65307
Periyatadka,city,Kerala,India,12.43,75.07,265,51925
Periye,city,Kerala,India,12.41,75.12,262,53269
Periye,city,Kerala,India,12.46,75.18,830,53044
Periye,city,Kerala,India,12.4,75.1,285,56196
Perladka,city,Kerala,India,12.46,75.09,344,53044
Perlath,city,Kerala,India,12.33,75.19,347,57716
Perole,city,Kerala,India,12.26,75.14,118,53976
Perul,city,Kerala,India,12.13,75.29,134,59267
Perumaccheri,city,Kerala,India,11.96,75.43,36,62840
Perumanna,city,Kerala,India,11.25,75.89,193,142306
Perumanna,city,Kerala,India,10.98,75.97,72,178711
Perumanna,city,Kerala,India,10.99,75.96,62,176022
Perumanseri,city,Kerala,India,8.97,76.62,9,246554
Perumbalam,city,Kerala,India,9.85,76.37,3,67030
Perumdissheri,city,Kerala,India,10.72,75.97,9,104431
Perumkulam,city,Kerala,India,8.51,77.08,249,127837
Perumpaduppa,city,Kerala,India,10.7,75.99,22,110979
Perumparamba,city,Kerala,India,10.8,76,16,230877
Perumparamba,city,Kerala,India,11.99,75.65,223,57588
Perumpavur,city,Kerala,India,10.11,76.47,118,83941
Perumundacheri,city,Kerala,India,11.65,75.67,249,137749
Perunjeri,city,Kerala,India,11.9,75.57,249,65980
Peruvangur,city,Kerala,India,12,75.46,32,75398
Peruvangur,city,Kerala,India,12,75.45,39,76709
Peruvattur,city,Kerala,India,11.46,75.7,6,108981
Perya,city,Kerala,India,11.83,75.85,2555,38960
Peringadi,city,Kerala,India,11.71,75.55,29,131451
Pilachikare,city,Kerala,India,12.34,75.29,200,58744
Pilacheri,city,Kerala,India,11.8,75.98,2509,37895
Pilassheri,city,Kerala,India,11.33,75.91,147,14404
Pilathapuram,city,Kerala,India,11.66,75.66,269,152764
Pilathapuram,city,Kerala,India,11.66,75.65,259,152764
Pilikodu,city,Kerala,India,12.19,75.16,72,51637
Pillaperuvanna,city,Kerala,India,11.59,75.81,219,119199
Pilakkal,city,Kerala,India,11.84,75.99,2608,37888
Pinarayi,city,Kerala,India,11.8,75.48,3,52719
Pindiyalgare,city,Kerala,India,12.41,75.13,305,53171
Piravam,city,Kerala,India,9.87,76.5,13,92341
Piravom,city,Kerala,India,9.87,76.5,13,92341
Pizhakukara,city,Kerala,India,9.8,76.75,334,51424
Podavur,city,Kerala,India,12.26,75.23,324,58808
Pododka,city,Kerala,India,12.4,75.18,830,54229
Polpakkara,city,Kerala,India,10.8,75.98,9,232244
Polur,city,Kerala,India,11.31,75.84,91,199833
Polur,city,Kerala,India,11.32,75.84,124,139668
Pomachi,city,Kerala,India,12.47,75.06,278,58027
Ponani,city,Kerala,India,10.78,75.92,3,115619
Pondi,city,Kerala,India,12.28,75.17,209,59965
Ponmala,city,Kerala,India,11.59,75.83,216,119186
Ponmeri,city,Kerala,India,11.64,75.64,249,145218
Ponmundam,city,Kerala,India,10.96,75.94,49,196512
Ponmundam,city,Kerala,India,10.95,75.95,65,201768
Ponmeri,city,Kerala,India,11.64,75.66,275,137648
Ponnani,city,Kerala,India,10.78,75.92,3,115619
Ponnazhikkara,city,Kerala,India,10.79,75.99,13,230123
Poranaura,city,Kerala,India,12.08,75.17,3,46313
Porangottu,city,Kerala,India,11.39,75.93,177,6627
Poringalkuthu,city,Kerala,India,10.28,76.43,203,78073
Porunnannur,city,Kerala,India,11.73,75.99,2509,38874
Porur,city,Kerala,India,10.92,75.91,3,159358
Potanganda,city,Kerala,India,12.25,75.3,308,62086
Potassheri,city,Kerala,India,11.01,76.53,830,35497
Pothur,city,Kerala,India,11.79,75.91,2509,37910
Pothuvaccheri,city,Kerala,India,11.73,75.52,16,122640
Pothuvacheri,city,Kerala,India,11.85,75.46,131,31282
Pottipala,city,Kerala,India,12.53,75.08,334,56702
Pottundi,city,Kerala,India,10.55,76.62,830,56568
Powaur,city,Kerala,India,8.31,77.07,6,83326
Poyanad,city,Kerala,India,11.83,75.51,36,72154
Poyil,city,Kerala,India,11.85,75.94,2509,38182
Poyilassheri,city,Kerala,India,10.88,75.95,39,193848
Poyilur,city,Kerala,India,11.77,75.65,173,79987
Poyari,city,Kerala,India,11.89,75.66,275,41705
Puchakad,city,Kerala,India,12.38,75.06,62,42907
Pudakai,city,Kerala,India,12.28,75.13,154,65049
Pudiaparamba,city,Kerala,India,12.49,75.23,830,53080
Pudunagaram,city,Kerala,India,10.68,76.68,416,44158
Pudunagram,city,Kerala,India,10.68,76.68,416,44158
Pudupalli,city,Kerala,India,9.5,76.53,59,159421
Puduppadi,city,Kerala,India,11.5,75.97,830,37529
Puduveli,city,Kerala,India,9.82,76.6,190,80078
Pukaiath,city,Kerala,India,12.41,75.09,275,55723
Pukkarattara,city,Kerala,India,10.76,75.99,3,203880
Pukkom,city,Kerala,India,11.74,75.57,111,160457
Pulakkod,city,Kerala,India,11.31,75.95,223,16167
Pulappoyil,city,Kerala,India,11.35,75.96,209,6109
Pulingom,city,Kerala,India,12.27,75.42,1128,57098
Pulingom,city,Kerala,India,12.29,75.41,252,53641
Puliyanambram,city,Kerala,India,11.71,75.59,49,137223
Puliyancher,city,Kerala,India,11.47,75.68,9,98085
Puliyanjuali,city,Kerala,India,12.29,75.18,232,58773
Puliyannu,city,Kerala,India,12.26,75.24,236,59185
Puliyil,city,Kerala,India,12.1,75.33,209,43881
Pullanur,city,Kerala,India,11.34,75.93,170,6109
Pullappalli,city,Kerala,India,9.68,76.62,26,72550
Pullippa,city,Kerala,India,11.93,75.39,16,38845
Pullukkara,city,Kerala,India,11.71,75.59,65,140871
Pulluni,city,Kerala,India,10.86,75.92,13,146433
Pullur,city,Kerala,India,10.91,75.95,49,201643
Pulluru,city,Kerala,India,12.37,75.11,164,72771
Pulluru,city,Kerala,India,12.36,75.09,62,70386
Pulluru,city,Kerala,India,12.39,75.13,324,59025
Pullanniyod,city,Kerala,India,12.02,75.41,3,71171
Punalur,city,Kerala,India,9.02,76.93,219,64522
Punassheri,city,Kerala,India,11.39,75.85,282,15664
Punatt,city,Kerala,India,11.48,75.83,262,113847
Pundur,city,Kerala,India,12.55,75.11,830,53044
Punganchal,city,Kerala,India,12.36,75.32,288,58742
Punje,city,Kerala,India,12.24,75.11,85,34546
Punnamana,city,Kerala,India,10.85,75.92,9,138738
Punnappira,city,Kerala,India,9.43,76.35,9,59385
Punnapra,city,Kerala,India,9.43,76.35,9,59385
Punnat,city,Kerala,India,11.96,75.66,351,52228
Punnattirutti,city,Kerala,India,10.78,75.94,3,144861
Punnayur,city,Kerala,India,10.65,76,29,77860
Punnayur,city,Kerala,India,10.65,75.99,16,62360
Punnurcherupalam,city,Kerala,India,11.37,75.84,252,25489
Puntura,city,Kerala,India,8.45,77.04,147,230073
Punur,city,Kerala,India,11.44,75.9,187,42063
Purakkad,city,Kerala,India,11.5,75.65,49,89340
Purakkal,city,Kerala,India,11.47,75.66,13,79318
Purameri,city,Kerala,India,11.65,75.63,236,147455
Purameri,city,Kerala,India,11.67,75.63,232,139092
Purangu,city,Kerala,India,10.76,75.95,3,130304
Purangu,city,Kerala,India,10.75,75.96,3,163959
Purattur,city,Kerala,India,10.81,75.91,3,107824
Purattur,city,Kerala,India,10.8,75.92,3,142764
Purattur,city,Kerala,India,10.81,75.92,3,128633
Puravur,city,Kerala,India,11.94,75.46,193,61312
Pureri,city,Kerala,India,11.76,75.8,1669,72034
Purora,city,Kerala,India,11.97,75.58,173,71693
Purora,city,Kerala,India,11.95,75.58,190,73955
Purtale,city,Kerala,India,12.18,75.14,3,38141
Purtemad,city,Kerala,India,12.23,75.13,75,42454
Puthencheri,city,Kerala,India,11.42,75.75,52,97223
Puthiyangadi,city,Kerala,India,11.3,75.76,13,172322
Puthiyaponnani,city,Kerala,India,10.76,75.94,3,124421
Puthiyedatt,city,Kerala,India,11.75,75.88,2509,37959
Puthiyedattu,city,Kerala,India,11.85,75.95,2509,38167
Puthupalli,city,Kerala,India,9.5,76.53,59,159421
Puthuppadi,city,Kerala,India,11.48,75.99,265,12124
Puthuppalli,city,Kerala,India,10.81,75.94,3,183660
Puthuppalli,city,Kerala,India,10.81,75.94,3,198651
Puthuppanam,city,Kerala,India,11.58,75.6,49,123245
Puthuppadi,city,Kerala,India,11.5,75.97,830,37529
Puthuriha,city,Kerala,India,11.39,76,223,6109
Puthuriha,city,Kerala,India,11.44,75.93,246,21864
Puthussiri,city,Kerala,India,11.77,75.93,2509,37934
Puthutirittu,city,Kerala,India,10.71,75.96,6,54132
Putlut,city,Kerala,India,12.21,75.18,124,58849
Putriyadka,city,Kerala,India,12.49,75.06,324,63501
Puttambi,city,Kerala,India,10.8,76.18,111,119274
Puttarkal,city,Kerala,India,12.61,75.12,246,52612
Puttige,city,Kerala,India,12.61,75.01,308,53060
Puttiyadka,city,Kerala,India,12.45,75.14,830,53044
Puttottummal,city,Kerala,India,11.77,75.95,2509,37924
Puttur,city,Kerala,India,11.37,75.95,236,6109
Puttur,city,Kerala,India,11.25,75.86,203,209428
Puttur,city,Kerala,India,11.77,75.6,223,94229
Putturvattam,city,Kerala,India,11.45,75.81,147,92810
Puttad,city,Kerala,India,11.54,75.77,187,119238
Puttur,city,Kerala,India,11.74,75.59,127,133444
Puttur,city,Kerala,India,12.21,75.23,183,60181
Puttur,city,Kerala,India,10.97,75.97,78,178726
Puttur,city,Kerala,India,11.32,75.76,13,149486
Putturu,city,Kerala,India,12.55,74.96,16,45230
Putuppalli,city,Kerala,India,9.5,76.53,59,159421
Puvalmule,city,Kerala,India,12.5,75.12,406,53044
Puvamala,city,Kerala,India,11.66,75.71,239,129689
Puvampayi,city,Kerala,India,11.46,75.87,157,87646
Puvatuparamba,city,Kerala,India,11.27,75.89,298,119638
Puzhampuram,city,Kerala,India,10.78,75.96,3,202419
Puzhathi,city,Kerala,India,11.9,75.39,59,34052
Puzhathi,city,Kerala,India,11.89,75.36,19,25146
Puzhathi,city,Kerala,India,11.88,75.37,16,24934
Quilandi,city,Kerala,India,11.44,75.69,3,89122
Quilon,city,Kerala,India,8.88,76.58,3,320022
Quilur,city,Kerala,India,11.98,75.6,118,66297
Ragikochi,city,Kerala,India,12.44,75.15,830,53044
Ramallur,city,Kerala,India,10.07,76.68,82,64685
Ramanthali,city,Kerala,India,12.05,75.19,167,40197
Rarott,city,Kerala,India,11.4,75.93,187,10261
Rarott,city,Kerala,India,11.41,75.94,187,8231
Ravaneshwar,city,Kerala,India,12.38,75.07,131,54697
Rayirimangalam,city,Kerala,India,10.98,75.87,6,100336
Rayirimangalam,city,Kerala,India,10.98,75.88,9,114939
Ryroth,city,Kerala,India,12.21,75.44,341,65292
Ramallur,city,Kerala,India,11.39,75.83,249,26289
Ramamangalam,city,Kerala,India,9.93,76.5,78,51116
Ramankari,city,Kerala,India,9.43,76.47,13,76039
Ramantali,city,Kerala,India,12.05,75.19,167,40197
Ramantali,city,Kerala,India,12.05,75.19,167,43788
Rani,city,Kerala,India,9.38,76.82,830,31997
Samekochi,city,Kerala,India,12.52,75.25,830,49675
Sankaranallur,city,Kerala,India,11.85,75.54,111,70112
Sankerham,city,Kerala,India,11.29,75.94,150,32257
Sappekallu,city,Kerala,India,12.52,75.25,830,49675
Sastankottah,city,Kerala,India,9.05,76.63,13,120379
Sastham Kottai,city,Kerala,India,9.05,76.63,13,120379
Shertalla,city,Kerala,India,9.68,76.35,13,134791
Shertallai,city,Kerala,India,9.68,76.35,13,134791
Shertally,city,Kerala,India,9.68,76.35,13,134791
Shinkli,city,Kerala,India,10.22,76.2,29,152062
Shiravagilu,city,Kerala,India,12.55,74.99,127,66598
Shiriya,city,Kerala,India,12.63,74.93,19,38797
Shoranur,city,Kerala,India,10.76,76.27,134,129257
Shutayil,city,Kerala,India,12.27,75.2,285,58804
Sintunu,city,Kerala,India,12.77,75,157,58819
Siva Kshetram,city,Kerala,India,10.97,75.94,49,200448
Siva Kshetram,city,Kerala,India,12.05,75.36,183,50622
Siva Kshetram,city,Kerala,India,10.97,75.99,101,172872
Siva Kshetram,city,Kerala,India,10.97,75.97,78,182829
Sivapuram,city,Kerala,India,11.44,75.85,164,69100
Sivapuram,city,Kerala,India,11.44,75.86,177,66445
Sivapuram,city,Kerala,India,11.89,75.63,357,47722
Sivapuram,city,Kerala,India,11.91,75.62,830,56392
Subramanniayya Kshetram,city,Kerala,India,10.99,75.98,85,171741
Sultan Bathery,city,Kerala,India,11.66,76.26,3349,49769
Sultan's Barttery,city,Kerala,India,11.66,76.26,3349,49769
Sultan's Bathery,city,Kerala,India,11.66,76.26,3349,49769
Sultan's Battery,city,Kerala,India,11.66,76.26,3349,49769
Sultans Battery,city,Kerala,India,11.66,76.26,3349,49769
Sultanâs Barttery,city,Kerala,India,11.66,76.26,3349,49769
Sultanâs Bathery,city,Kerala,India,11.66,76.26,3349,49769
Sultanâs Battery,city,Kerala,India,11.66,76.26,3349,49769
Sulthan Bathery,city,Kerala,India,11.66,76.26,3349,49769
Sunnambala,city,Kerala,India,12.69,75.09,390,58205
Surani,city,Kerala,India,11.73,75.8,2053,82185
Surladi,city,Kerala,India,12.52,75.23,347,52582
Sasthankotta,city,Kerala,India,9.05,76.63,13,120379
Tachangad,city,Kerala,India,12.42,75.06,104,42565
Tadikkadavu,city,Kerala,India,12.19,75.44,288,65294
Tadikkadavu,city,Kerala,India,12.16,75.45,226,64120
Taire,city,Kerala,India,12.49,75.07,127,60283
Taiyadka,city,Kerala,India,12.49,75.12,288,53044
Takkekad,city,Kerala,India,12.16,75.15,3,37653
Talachangat,city,Kerala,India,11.93,75.62,357,58400
Talakanam,city,Kerala,India,12.32,75.14,255,78502
Talakkad,city,Kerala,India,10.88,75.93,32,185709
Talakkad,city,Kerala,India,11.32,75.99,150,12257
Talakkad,city,Kerala,India,11.33,75.97,177,8136
Talakkad,city,Kerala,India,10.89,75.93,32,185709
Talakkadattur,city,Kerala,India,10.95,75.94,42,201787
Talakkolattur,city,Kerala,India,11.35,75.76,45,100930
Talakkottur,city,Kerala,India,10.97,75.92,9,191716
Talambra,city,Kerala,India,11.89,75.67,295,41145
Talamunda,city,Kerala,India,11.91,75.47,190,51223
Talamunda,city,Kerala,India,10.78,76,13,221772
Talangere,city,Kerala,India,12.49,74.99,42,61654
Talapperumanna,city,Kerala,India,11.34,75.93,150,6109
Talasseri,city,Kerala,India,11.75,75.49,6,85058
Talavadi,city,Kerala,India,9.35,76.53,16,84749
Talavil,city,Kerala,India,12.17,75.41,830,62241
Talayolaparambu,city,Kerala,India,9.8,76.45,13,111096
Talekala,city,Kerala,India,12.72,74.95,157,55651
Taliparamba,city,Kerala,India,12.04,75.36,177,53424
Talipparamba,city,Kerala,India,12.04,75.36,177,53424
Tallakad,city,Kerala,India,10.88,75.93,32,185709
Tallanadka,city,Kerala,India,12.51,75.2,830,53044
Talora,city,Kerala,India,12.06,75.37,282,55742
Talukkara,city,Kerala,India,10.86,75.93,13,160970
Talayi,city,Kerala,India,11.72,75.52,9,98130
Tamarakulam,city,Kerala,India,9.17,76.63,118,135279
Tamrassheri,city,Kerala,India,11.34,75.8,111,150254
Tanalur,city,Kerala,India,10.94,75.92,6,192493
Tandilakkara,city,Kerala,India,10.86,75.93,13,160970
Tandilam,city,Kerala,India,10.82,75.98,9,228325
Tangasseri,city,Kerala,India,8.88,76.58,3,287638
Tannithote,city,Kerala,India,12.4,75.13,216,55546
Tanniyurnagaram,city,Kerala,India,10.98,75.87,3,96647
Tannote,city,Kerala,India,12.39,75.08,144,61841
Tanur,city,Kerala,India,10.98,75.87,3,96647
Taragode,city,Kerala,India,12.34,75.16,203,65156
Tariyod,city,Kerala,India,11.65,75.96,2509,47280
Tariyott,city,Kerala,India,11.65,75.96,2509,47280
Taru Kadapram,city,Kerala,India,10.91,75.89,3,141331
Tattamangalam,city,Kerala,India,10.68,76.71,830,44167
Tattiyod,city,Kerala,India,11.91,75.49,183,52708
Tattolikkara,city,Kerala,India,11.66,75.57,32,99954
Tavanur,city,Kerala,India,10.85,75.98,13,203287
Tavanur,city,Kerala,India,10.84,75.98,9,203287
Tavarul,city,Kerala,India,12.02,75.48,95,71036
Tavatt,city,Kerala,India,12.02,75.28,29,25812
Tavidissheri,city,Kerala,India,12.18,75.28,318,64174
Tavinnal,city,Kerala,India,11.82,75.97,2509,37895
Tayakat,city,Kerala,India,12.11,75.18,45,68249
Tayakolam,city,Kerala,India,12.4,75.11,347,58867
Tayannur,city,Kerala,India,12.35,75.2,275,57194
Tazhe Talappata,city,Kerala,India,11.86,75.94,2555,38254
Tekkila,city,Kerala,India,12.49,75.05,144,66710
Tekkila,city,Kerala,India,12.48,75.07,262,61851
Tekkumbad,city,Kerala,India,11.98,75.29,6,20646
Tekkummuri,city,Kerala,India,10.9,75.92,16,176544
Tekkummuri,city,Kerala,India,10.71,75.99,16,134433
Tekkumuri,city,Kerala,India,9.9,76.28,3,125531
Tekkumuri,city,Kerala,India,10.89,75.98,108,188389
Tellicherri,city,Kerala,India,11.75,75.49,6,85058
Tellicherry,city,Kerala,India,11.75,75.49,6,85058
Tellichery,city,Kerala,India,11.75,75.49,6,85058
Tennala,city,Kerala,India,10.99,75.94,29,174649
Teratayi,city,Kerala,India,12.02,75.44,26,72270
Tevalappuram,city,Kerala,India,10.89,75.93,32,195863
Teythal,city,Kerala,India,11.81,75.93,2509,37905
Teyyangad,city,Kerala,India,10.77,75.94,3,134603
Thalassery,city,Kerala,India,11.75,75.49,6,85058
Thalavady,city,Kerala,India,9.35,76.53,16,84749
Thalekunnu,city,Kerala,India,12.44,75.17,305,53044
Thanikudi,city,Kerala,India,9.48,77.28,3349,19519
Thanniyam,city,Kerala,India,10.42,76.13,62,68176
Thannote,city,Kerala,India,12.4,75.15,830,53215
Tharuvana,city,Kerala,India,11.74,75.98,2509,38874
Thattakad,city,Kerala,India,10.13,76.7,341,34513
Thattekad,city,Kerala,India,10.13,76.7,341,34513
Thaunada,city,Kerala,India,11.85,75.45,141,31528
Thekkankuttur,city,Kerala,India,10.9,75.96,65,198174
Thekkankuttur,city,Kerala,India,10.89,75.96,65,194997
Thevunam,city,Kerala,India,12.5,75.24,830,53199
Thillangeri,city,Kerala,India,11.94,75.65,236,52244
ThillangÃ©ri,city,Kerala,India,11.94,75.66,249,53972
Thirumeni,city,Kerala,India,12.25,75.42,830,62031
Thiruvalla,city,Kerala,India,9.38,76.57,32,151212
Thiruvananthapuram,city,Kerala,India,8.49,76.95,3,149750
Thiruvananthapuramas,city,Kerala,India,8.49,76.95,3,149750
Thotada,city,Kerala,India,11.84,75.42,55,23440
Thrissur,city,Kerala,India,10.52,76.22,157,195640
Thuravoor,city,Kerala,India,9.77,76.32,9,111432
Thurti,city,Kerala,India,12.22,75.13,39,38757
Tikkotti,city,Kerala,India,11.48,75.62,9,51299
Tikkuttissheri,city,Kerala,India,11.48,75.81,291,111259
Tikotti,city,Kerala,India,11.48,75.62,9,51299
Timiri,city,Kerala,India,12.21,75.4,269,65239
Timri,city,Kerala,India,12.23,75.19,180,58838
Tindummal,city,Kerala,India,11.84,75.95,2509,38012
Tindummal,city,Kerala,India,11.84,75.9,2509,38614
Tirikkal,city,Kerala,India,12.14,75.47,223,65304
Tirukummamule,city,Kerala,India,12.49,75.13,406,53044
Tirumana,city,Kerala,India,11.63,75.62,255,151144
Tirumukulam,city,Kerala,India,10.18,76.33,59,135990
Tirunelli,city,Kerala,India,11.92,75.96,3349,32503
Tirunnavaya,city,Kerala,India,10.87,75.97,32,189239
Tirunnavaya,city,Kerala,India,10.86,75.97,36,189912
Tirur,city,Kerala,India,10.92,75.91,3,172507
Tirur,city,Kerala,India,10.91,75.92,13,182124
Tirur Station,city,Kerala,India,10.91,75.92,13,182124
Tirutti,city,Kerala,India,10.87,75.98,55,188672
Tirutti,city,Kerala,India,11.68,75.6,68,133100
Tiruttikkundayur,city,Kerala,India,10.81,75.99,16,230877
Tiruvalla,city,Kerala,India,8.44,76.97,3,125529
Tiruvalla,city,Kerala,India,9.38,76.57,32,151212
Tiruvallam,city,Kerala,India,8.44,76.97,3,125529
Tiruvallur,city,Kerala,India,11.59,75.68,124,114965
Tiruvananantapuram,city,Kerala,India,8.49,76.95,3,149750
Tiruvanantapuram,city,Kerala,India,8.49,76.95,3,149750
Tiruvanantapuramas,city,Kerala,India,8.49,76.95,3,149750
Tiruvangad,city,Kerala,India,11.73,75.53,39,145350
Tiruvangad,city,Kerala,India,11.75,75.52,22,119692
Tiruvangur,city,Kerala,India,11.37,75.74,3,74227
Tiruvangur,city,Kerala,India,11.38,75.73,3,64000
Tiruvattur,city,Kerala,India,12.11,75.36,85,47882
Tiruvod,city,Kerala,India,11.49,75.79,400,117049
Tiruvonapram,city,Kerala,India,11.89,75.74,295,40975
Tirur,city,Kerala,India,11.93,75.53,226,69593
Tirurangadi,city,Kerala,India,11.04,75.92,26,173027
Todatkanda,city,Kerala,India,12.45,75.13,830,53044
Todupulai,city,Kerala,India,9.9,76.72,111,61262
Tomaiakkavu,city,Kerala,India,10.93,75.91,3,175567
Tondar,city,Kerala,India,11.74,75.89,2608,38831
Tondarnad,city,Kerala,India,11.75,75.88,2509,40145
Tondayattil,city,Kerala,India,11.26,75.8,95,275022
Tondippeyil,city,Kerala,India,11.65,75.75,154,112799
Toparankudi,city,Kerala,India,9.86,77.06,3349,54538
Tornurbali,city,Kerala,India,12.55,75.15,830,53044
Torayi,city,Kerala,India,11.41,75.75,49,86370
Tozhanur,city,Kerala,India,10.96,75.99,124,175882
Tricchambaram,city,Kerala,India,12.03,75.36,121,53692
Trichur,city,Kerala,India,10.52,76.22,157,195640
Trikarpur North,city,Kerala,India,12.15,75.17,49,63237
Trikarpur South,city,Kerala,India,12.12,75.19,45,72608
Trikkalangod,city,Kerala,India,11.15,76.12,137,88953
Trikkandiyur,city,Kerala,India,10.91,75.92,9,182124
Trikkandiyur,city,Kerala,India,10.91,75.93,16,192694
Trikkottur,city,Kerala,India,11.5,75.62,13,65079
Trikkunnapuzha,city,Kerala,India,9.25,76.42,6,124038
Trikodi,city,Kerala,India,11.48,75.62,9,51299
Trikunnapuzha,city,Kerala,India,9.25,76.42,6,124038
Triperuntura,city,Kerala,India,9.28,76.59,42,122557
Trippalur,city,Kerala,India,10.84,75.98,9,212306
Trippapur,city,Kerala,India,8.53,76.9,22,144445
Triprangod,city,Kerala,India,10.86,75.94,22,183387
Triprangod,city,Kerala,India,10.84,75.95,6,187988
Triprangottur,city,Kerala,India,11.74,75.61,127,117862
Tripunittura,city,Kerala,India,9.94,76.33,13,100333
Tripunnittara,city,Kerala,India,9.94,76.33,13,100333
Trissur,city,Kerala,India,10.52,76.22,157,195640
Tritala,city,Kerala,India,10.8,76.13,95,125611
Trittallur,city,Kerala,India,10.82,75.93,3,168620
Trittala,city,Kerala,India,10.8,76.13,95,125611
Trivandrum,city,Kerala,India,8.49,76.95,3,149750
Tudiyar,city,Kerala,India,12.56,74.98,78,57321
Tullipurmbu,city,Kerala,India,12.04,75.36,177,53424
Tumbadka,city,Kerala,India,12.47,75.16,830,53044
Tumbranda,city,Kerala,India,12.33,75.24,830,58663
Tuneri,city,Kerala,India,11.7,75.63,190,144856
Tunnapu,city,Kerala,India,12.35,75.14,285,67128
Turavur,city,Kerala,India,9.77,76.32,9,111432
Turcunapulli,city,Kerala,India,9.25,76.42,6,124038
Turti,city,Kerala,India,12.5,75.01,134,76804
Turuttiyad,city,Kerala,India,11.45,75.79,147,98653
Tuvakkod,city,Kerala,India,11.41,75.74,3,81140
Tuval,city,Kerala,India,12.45,75.07,170,53137
Tuvvur,city,Kerala,India,11.12,76.28,196,70102
Tuyyam,city,Kerala,India,10.78,75.98,3,220548
Tyambadi,city,Kerala,India,12.53,75.17,262,53044
Talekkod,city,Kerala,India,11.33,75.97,177,8136
Taliyil,city,Kerala,India,11.66,75.75,154,112571
Tamrassheri,city,Kerala,India,11.41,75.94,223,10310
Tanalur,city,Kerala,India,10.95,75.91,6,184616
Tayanori,city,Kerala,India,12.11,75.2,45,79463
Tazhekkod,city,Kerala,India,11.33,75.97,177,8136
Udenuru,city,Kerala,India,12.16,75.16,29,50892
Udenuru Kadparam,city,Kerala,India,12.13,75.15,3,36266
Udiyavara,city,Kerala,India,12.74,74.89,3,43419
Uduma,city,Kerala,India,12.44,75.02,78,38121
Udumanthala,city,Kerala,India,12.1,75.18,42,66215
Uhrangala,city,Kerala,India,12.57,75.1,334,53044
Ujar Ulvar,city,Kerala,India,12.62,74.96,196,47888
Ulliyeri,city,Kerala,India,11.45,75.77,131,104449
Ulliyeri,city,Kerala,India,11.45,75.77,104,114248
Ulliyil,city,Kerala,India,11.96,75.64,249,57777
Uncha,city,Kerala,India,12.41,75.14,370,53080
Ungadithayavayal,city,Kerala,India,11.76,75.85,2509,41933
Unnanadka,city,Kerala,India,12.62,75.1,830,52953
Unnikulam,city,Kerala,India,11.45,75.88,183,60243
Unnikulam,city,Kerala,India,11.43,75.89,239,45977
Uppala,city,Kerala,India,12.68,74.9,9,37325
Urakam,city,Kerala,India,10.43,76.22,98,90453
Urakom,city,Kerala,India,10.43,76.22,98,90453
Uratt,city,Kerala,India,11.65,75.74,147,113345
Vadakancheri,city,Kerala,India,10.66,76.25,236,102002
Vadakancheri-Cochin,city,Kerala,India,10.66,76.25,236,102002
Vadakethara,city,Kerala,India,10.68,76.45,216,99297
Vadakkancheri,city,Kerala,India,10.59,76.48,239,90140
Vadakkancheri,city,Kerala,India,10.66,76.25,236,102002
Vadakkancheri,city,Kerala,India,12.01,75.39,52,67051
Vadakkumbad,city,Kerala,India,11.62,75.76,134,116107
Vadassheri,city,Kerala,India,12.17,75.23,209,67964
Vadayatt,city,Kerala,India,11.65,75.73,164,120836
Vadayatt,city,Kerala,India,11.66,75.73,200,123565
Vadkumpad,city,Kerala,India,12.07,75.18,42,54161
Vaikam,city,Kerala,India,9.75,76.4,13,122932
Vaikom,city,Kerala,India,9.75,76.4,13,122932
Vailey,city,Kerala,India,8.52,76.89,3,100765
Valakkayi,city,Kerala,India,12.03,75.45,190,70841
Valancheri,city,Kerala,India,10.88,76.08,180,170873
Valani,city,Kerala,India,10.63,76.32,321,88155
Valapattanam,city,Kerala,India,11.92,75.35,9,26579
Valapattanam,city,Kerala,India,11.93,75.35,6,29347
Valarpattanam,city,Kerala,India,11.92,75.35,9,26579
Valatt,city,Kerala,India,11.79,75.9,2509,37906
Valavannur,city,Kerala,India,10.94,75.97,104,194976
Valavannur,city,Kerala,India,10.95,75.97,82,186932
Valavilcheleri,city,Kerala,India,11.95,75.4,26,50854
Valayam,city,Kerala,India,11.73,75.65,154,129548
Valayanur,city,Kerala,India,11.27,75.93,75,48374
Valayanur,city,Kerala,India,11.29,75.93,121,38054
Valeekechi,city,Kerala,India,12.54,75.24,830,48901
Valiakumbalam,city,Kerala,India,11.64,75.77,147,114635
Valiya Koyipara,city,Kerala,India,12.16,75.35,410,58000
Valiya Pare,city,Kerala,India,12.15,75.3,252,63406
Valiyakkod,city,Kerala,India,11.55,75.76,213,119221
Valiyannur,city,Kerala,India,11.91,75.42,118,38936
Valiyannur,city,Kerala,India,11.66,75.74,164,114920
Valiyora,city,Kerala,India,11.03,75.92,22,173029
Vallappula,city,Kerala,India,10.83,76.25,196,123199
Vallapputha,city,Kerala,India,10.83,76.25,196,123199
Vallapula,city,Kerala,India,10.83,76.25,196,123199
Vallikunnu,city,Kerala,India,11.13,75.83,9,107035
Valliyott,city,Kerala,India,11.43,75.88,200,57882
Valuyaparamba,city,Kerala,India,11.4,75.91,177,16427
Vammanal,city,Kerala,India,11.89,75.52,104,50663
Vandakundu,city,Kerala,India,12.33,75.24,830,58728
Vandamettu,city,Kerala,India,9.72,77.16,3658,56449
Vandanmettu,city,Kerala,India,9.72,77.16,3658,56449
Vandiperiyar,city,Kerala,India,9.57,77.09,2742,19519
Vanimel,city,Kerala,India,11.71,75.7,167,155438
Vaniyambalam,city,Kerala,India,11.18,76.25,203,67497
Vanmugam,city,Kerala,India,11.47,75.64,13,59846
Vanmugam,city,Kerala,India,11.48,75.62,9,51299
Vannaramala,city,Kerala,India,11.59,75.99,2805,54741
Vannattippara,city,Kerala,India,11.64,75.83,305,114960
Vanneri,city,Kerala,India,11.93,75.68,357,46993
Varadul,city,Kerala,India,12.03,75.38,32,63349
Varathur,city,Kerala,India,11.3,75.81,78,238198
Varayal,city,Kerala,India,11.83,75.9,2555,38374
Varayil,city,Kerala,India,12.25,75.39,830,63220
Varikkoli,city,Kerala,India,11.67,75.68,275,161202
Varisshiyakuni,city,Kerala,India,11.63,75.58,59,123161
Varkala,city,Kerala,India,8.74,76.7,3,121211
Varkkallai,city,Kerala,India,8.74,76.7,3,121211
Vatakara,city,Kerala,India,11.6,75.58,49,100734
Vatakemuri,city,Kerala,India,10.42,76.15,68,62478
Vatakumbad,city,Kerala,India,12.19,75.18,59,58093
Vattipuram,city,Kerala,India,11.88,75.56,160,57552
Vattoli,city,Kerala,India,11.82,75.87,2509,38425
Vattoli,city,Kerala,India,11.68,75.71,357,149730
Vayalalam,city,Kerala,India,11.75,75.52,29,136187
Vayalar,city,Kerala,India,9.7,76.33,13,127844
Vayalayi,city,Kerala,India,12.28,75.39,357,58865
Vayanur,city,Kerala,India,11.88,75.71,295,40975
Vayatmalai,city,Kerala,India,11.77,75.79,1204,70481
Vayattur,city,Kerala,India,11.68,75.59,32,123139
Vayikkilassheri,city,Kerala,India,11.63,75.6,114,131733
Vayittir,city,Kerala,India,11.55,76.05,3349,41726
Vayittiri,city,Kerala,India,11.55,76.05,3349,41726
Vazhakkad,city,Kerala,India,11.25,75.96,75,59262
Vazhakulam,city,Kerala,India,9.95,76.65,104,82115
Vazhani,city,Kerala,India,10.63,76.32,321,88155
Veeyur,city,Kerala,India,11.47,75.7,55,114786
Veeyur,city,Kerala,India,11.47,75.68,13,105444
Vekkalam,city,Kerala,India,11.87,75.73,308,40975
Velakkad,city,Kerala,India,11.47,75.66,6,79318
Velakodu,city,Kerala,India,11.95,75.71,249,48776
Velam,city,Kerala,India,11.61,75.72,118,114533
Velanilattu,city,Kerala,India,11.83,75.99,2536,37893
Velanur,city,Kerala,India,11.97,75.6,118,68383
Velap,city,Kerala,India,12.15,75.16,59,45071
Velavur,city,Kerala,India,11.32,75.88,114,76941
Veli,city,Kerala,India,8.52,76.89,3,100765
Veliiyangod,city,Kerala,India,10.73,75.95,3,83390
Velimanna,city,Kerala,India,11.38,75.94,209,6109
Veliyangod,city,Kerala,India,10.74,75.94,3,102394
Vellamunda,city,Kerala,India,11.72,75.95,2509,39913
Vellamunda,city,Kerala,India,11.72,75.96,2509,39913
Vellanad,city,Kerala,India,8.56,77.05,236,93279
Vellarapadi,city,Kerala,India,11.91,75.99,3349,35125
Vellaravelli,city,Kerala,India,11.9,75.72,291,40975
Velliparamba,city,Kerala,India,11.26,75.85,242,223939
Velliri,city,Kerala,India,10.78,75.93,3,130490
Velliyambarai,city,Kerala,India,11.97,75.62,219,65439
Velliyambaramba,city,Kerala,India,11.94,75.55,249,75927
Velliyod,city,Kerala,India,11.63,75.66,285,129653
Velliyod,city,Kerala,India,11.74,75.7,154,118519
Velliyur,city,Kerala,India,11.52,75.78,141,119255
Vellur,city,Kerala,India,12.15,75.21,49,82678
Vellur,city,Kerala,India,11.68,75.63,226,139892
Vellur,city,Kerala,India,12.14,75.22,42,83005
Vellamassheri,city,Kerala,India,10.87,75.92,16,155868
Vellavu,city,Kerala,India,12.07,75.37,226,55988
Vellora,city,Kerala,India,12.18,75.37,830,62544
Vempayam,city,Kerala,India,8.62,76.93,232,120242
Vengalam,city,Kerala,India,11.36,75.74,3,77664
Vengalur,city,Kerala,India,10.89,75.95,55,197701
Vengappatta,city,Kerala,India,11.55,75.79,183,119238
Vengat,city,Kerala,India,11.88,75.54,134,53369
Vengeri,city,Kerala,India,11.3,75.8,68,261898
Vengei,city,Kerala,India,11.3,75.79,55,240711
Venjaramud,city,Kerala,India,8.68,76.9,187,68182
Venjaramudu,city,Kerala,India,8.68,76.9,187,68182
Vennakkod,city,Kerala,India,11.35,75.94,187,6109
Vennakkod,city,Kerala,India,11.34,75.95,203,6109
Vennikulam,city,Kerala,India,9.4,76.67,98,127981
Verlam,city,Kerala,India,12.45,75.15,830,53044
Vesala,city,Kerala,India,11.95,75.49,249,69301
Vetchur,city,Kerala,India,8.7,76.73,3,111913
Vettam,city,Kerala,India,10.86,75.91,3,114453
Vettam,city,Kerala,India,10.86,75.92,6,131885
Vettoor,city,Kerala,India,8.7,76.73,3,111913
Vettur,city,Kerala,India,8.7,76.73,3,111913
Vettutura,city,Kerala,India,8.58,76.83,19,72662
Vezhapur,city,Kerala,India,11.41,75.95,187,8231
Vilinjam,city,Kerala,India,8.38,76.99,0,74957
Vilinjum,city,Kerala,India,8.38,76.99,0,74957
Villiappalli,city,Kerala,India,11.61,75.64,285,136079
Viloith,city,Kerala,India,11.45,75.98,285,6110
Vimangalam,city,Kerala,India,11.47,75.64,0,59846
Viravancheri,city,Kerala,India,11.47,75.64,13,59846
Virpad,city,Kerala,India,11.98,75.75,830,41298
Viryambram,city,Kerala,India,11.41,75.86,246,38681
Vishnu Kshetram,city,Kerala,India,10.97,75.93,9,195067
Vishnu Kshetram,city,Kerala,India,10.98,75.95,59,181488
Vishnu Kshetram,city,Kerala,India,10.98,75.95,59,176022
Vishnu Kshetram,city,Kerala,India,10.97,75.95,62,186955
Vishnu Kshetram,city,Kerala,India,10.98,75.97,72,175931
Vorkadi,city,Kerala,India,12.76,74.93,154,81194
Vorkadi Kasba,city,Kerala,India,12.77,74.94,144,74582
Voyala,city,Kerala,India,12.5,75.17,830,53044
Vypeen,city,Kerala,India,9.97,76.25,13,116610
Vypin,city,Kerala,India,9.97,76.25,13,116610
Vattoli,city,Kerala,India,11.86,75.64,223,41319
Vakoli,city,Kerala,India,11.5,75.73,167,124269
Valakkad,city,Kerala,India,11.25,75.96,75,59262
Valamaruthur,city,Kerala,India,10.83,75.93,6,187393
Valur,city,Kerala,India,11.53,75.79,187,119243
Vaniyannur,city,Kerala,India,10.92,75.95,45,201808
Varanakkara,city,Kerala,India,10.91,75.96,62,199030
Variyamkulam,city,Kerala,India,10.78,76.35,209,167523
Velam,city,Kerala,India,11.63,75.74,157,114431
Velur,city,Kerala,India,11.39,75.76,127,72187
Vemanna,city,Kerala,India,10.88,75.91,3,151755
Wandoor,city,Kerala,India,11.19,76.24,200,67497
Wandur,city,Kerala,India,11.19,76.24,200,67497
Walayar,city,Kerala,India,10.85,76.85,830,45016
Yadanur,city,Kerala,India,11.47,75.88,193,81837
Yaiyekat,city,Kerala,India,12.17,75.18,49,70753
Yechabare,city,Kerala,India,12.49,75.12,370,53044
Yedadka,city,Kerala,India,12.6,75.13,252,52125
Yedalekad,city,Kerala,India,12.13,75.16,3,45182
Yedapani,city,Kerala,India,12.44,75.15,830,53044
Yedeyil,city,Kerala,India,12.35,75.08,45,64563
Yednad,city,Kerala,India,12.61,74.99,272,53528
Yednir,city,Kerala,India,12.52,75.07,288,63163
Yenmakaje,city,Kerala,India,12.65,75.09,830,54103
Yenmakaje,city,Kerala,India,12.69,75.11,187,58088
Yeranipaya,city,Kerala,India,12.5,75.16,262,53044
Yerinjeriadka,city,Kerala,India,12.52,75.13,406,53044
Yeriyal,city,Kerala,India,12.48,75.11,150,53044
Yeriyal,city,Kerala,India,12.52,74.97,85,53291
Yerole,city,Kerala,India,12.43,75.05,154,46590
Yevandur,city,Kerala,India,12.54,75.22,830,51086